latitude,longitude,business_id,address,business_name,business_type,community_id
39.980973899999995,-82.99474219681358,20415681,350 E 1ST AVE,Berry Brothers Boltworks Building,Other,380.0
39.91707804449459,-82.90695120219796,20415697,3480 REFUGEE RD,First Church of God,House of Worship,388.0
40.11246249867255,-83.08334763941383,20415719,2524 BILLINGSLEY RD,Regals Cinema Columbus,Theater/Concert Hall,384.0
39.962525689419714,-83.06642777176674,20415731,303 N EUREKA AVE,Holton Community Center,Community/Recreation Center,370.0
40.01697502375551,-82.97745554637683,20415743,1254 BRIARWOOD AVE,Linden Community Center,Community/Recreation Center,373.0
40.065877940446725,-82.97004727118548,20415842,4407 TAMARACK BLVD,Vaud-Villities Productions,Theater/Concert Hall,378.0
40.00121484388385,-83.0081744086706,20415843,1904 N HIGH ST,Kaleidoscope Youth Center,Community/Recreation Center,362.0
39.988396030147335,-82.92663150662432,20415844,854 ALTON AVE,William H. Adams Community Center,Community/Recreation Center,387.0
39.93621204865879,-83.00572287396255,20415845,1300 DECKEBACH RD,Berliner Athletic Complex,Community/Recreation Center,361.0
39.9860554,-83.00478392926533,20415846,1160 N HIGH ST,Stonewall Columbus,Other,380.0
39.93672158333333,-82.97589595833334,20415847,735 E GATES ST,Apostolic Christian Church of Christ,House of Worship,365.0
40.014177595571184,-82.98107371752685,20415848,1081 E HUDSON ST,The House of Prayer,House of Worship,364.0
39.954462649235666,-83.03738160816178,20415849,192 S CENTRAL AVE,Central Ave Church of Christ,House of Worship,374.0
39.968639160060505,-83.0963689723904,20415850,729 N WILSON RD,Centro Familiar Cristo Rey,House of Worship,370.0
39.891694196448825,-83.1233799466843,20415852,4900 BIG RUN SOUTH RD,Cornerstone Christian Church,House of Worship,363.0
39.93930705363782,-82.9665318030322,20415853,1256 LINWOOD AVE,Corpus Christi Center of Peace,House of Worship,365.0
39.955497,-82.977502,20415855,812 E FULTON ST,Exodus Fellowship Church,House of Worship,371.0
39.98983785,-82.97913614522884,20415856,1204 ST CLAIR AVE,Faith Tabernacle Holiness Church,House of Worship,366.0
39.91343550488358,-82.8824669670936,20415857,4272 EASTLAND SQUARE DR,First Love Kingdom Ministries,House of Worship,388.0
39.935401,-82.979787,20415858,600 FREBIS AVE,Gospel Lighthouse Church,House of Worship,365.0
39.95885232323232,-82.99345884848485,20415859,204 S 5TH ST,Holy Cross Church,House of Worship,379.0
39.9425052,-83.07204172,20415860,598 S HARRIS AVE,Jehovah-Shammah Pentecostal Ministries,House of Worship,370.0
39.914324,-82.995463,20415861,2295 S HIGH ST,Lighthouse Ministries,House of Worship,359.0
40.0284207,-82.96526835969945,20415862,1775 EDDYSTONE AVE,Mt Lebanon Missionary Baptist,House of Worship,373.0
39.916732,-82.903592,20415863,3475 REFUGEE RD,New Birth Christian Ministries,House of Worship,388.0
40.051357,-82.953552,20415864,4034 CLEVELAND AVE,New Hope Community Church,House of Worship,378.0
40.01721859183674,-82.9666831632653,20415865,1660 MYRTLE AVE,New Walk Church of God In Christ,House of Worship,373.0
40.05645397524447,-83.07315196885813,20415866,2040 W HENDERSON RD,Olentangy Church Childcar,House of Worship,385.0
39.957579,-82.960544,20415867,1447 E MAIN ST,Praise Deliverance Ministries,House of Worship,371.0
39.9809262,-83.00011324709737,20415868,893 HAMLET ST,St. Mary's Syro Malabar Catholic Church,House of Worship,380.0
40.03312650793651,-83.04576925396826,20415869,1088 THOMAS LN,St. Timothy Catholic Church,House of Worship,393.0
39.948667716631505,-82.86721998763537,20415870,1064 COUNTRY CLUB RD,The Rock Christian Fellowship,House of Worship,388.0
39.91924225267873,-83.1222283977878,20415871,3005 HOLT RD,Vineyard Christian Fellowship,House of Worship,363.0
40.00423467543648,-82.87265344726025,20415872,4693 FRIENDSHIP DR,Wonderland Community Church,House of Worship,391.0
39.9857359,-83.00911180552568,20415877,1160 HUNTER AVE,Columbus Aquatics Center,Community/Recreation Center,383.0
40.12289055,-83.06917037298146,20415994,1985 SWANSFORD DR,St Andrew Christian Church,House of Worship,384.0
40.062751362884576,-83.03720823629693,20416131,4996 OLENTANGY RIVER RD,Bill McDonald Athletic Complex,Community/Recreation Center,385.0
39.93141389795918,-83.10871526530613,20416220,4131 CLIME RD,St. Stephen the Martyr,House of Worship,370.0
39.94587200385397,-83.01801845449741,20416259,755 RENICK ST,Sullivant Gardens Community Center,Community/Recreation Center,374.0
40.01159430908745,-83.02859488487972,20416341,2410 FRED TAYLOR DR,Buckeye Field,Arena/Stadium,393.0
39.96247183747323,-83.02204298788065,20416350,780 RIVER ST,Franklinton Cemetery,Cemetery,374.0
39.9716235,-82.97587250000001,20416600,977 MT VERNON AVE,Bilal Ibn Rabah Center,House of Worship,371.0
39.941685899999996,-82.9917605452589,20416616,1069 JAEGER ST,Schiller Community Center,Community/Recreation Center,382.0
40.099744048589784,-82.99326253642968,20416742,6600 BUSCH BLVD,Columbus Pentecostal Assembly,House of Worship,378.0
40.06529749407556,-83.18293396042166,20416746,4515 COSGRAY RD,Hilliard YMCA,Community/Recreation Center,389.0
39.972975700000006,-82.9044079,20416756,4445 E BROAD ST,Columbus Metropolitan Library - Whitehall,Library,388.0
40.1456316,-82.98346062586236,20416889,1400 POLARIS PKWY,Fieldhouse USA Sports Complex,Other,386.0
40.11311579704009,-82.99386598697775,20417159,7343 WORTHINGTON-GALENA RD,Vista Community Church,House of Worship,386.0
39.946524,-82.906405,20417161,1223 BARNETT RD,Christ Memorial Baptist Church Life Center,House of Worship,388.0
39.92517067390929,-82.99259230118878,20417177,REEB AVE,South Side Clubhouse,Community/Recreation Center,365.0
39.98625828421864,-82.95301012419776,20417192,1907 LEONARD AVE,YMCA of Central Ohio,Community/Recreation Center,372.0
40.08169206057059,-82.85241685283655,20417194,402 N HAMILTON RD,Whitehall Community Park YMCA,Community/Recreation Center,392.0
40.134007350000005,-83.0172252,20417195,7798 LIBERTY RD,Liberty Township/Powell YMCA,Community/Recreation Center,386.0
39.97248150587833,-82.96352978041412,20417605,123 GRANVILLE ST,Mifflin Presbyterian Church,House of Worship,371.0
40.08151509090909,-83.03912418181818,20417616,6121 OLENTANGY RIVER RD,Congregation Beth Tikvah,House of Worship,385.0
40.05683278006862,-82.88637040836824,20417780,485 CHERRY BOTTOM RD,Stonybrook United Methodist,House of Worship,392.0
39.98218315,-82.81898319999999,20417912,4040 E BROAD ST,Metropolitan Community Svc Inc,Community/Recreation Center,367.0
39.9717389,-83.0027423,20417935,200 MARKET ST,Columbus Metropolitan Library - New Albany,Library,379.0
39.987717094408325,-82.91546439044505,20417975,20 3RD ST,New Albany United Methodist,House of Worship,387.0
40.0816338,-82.9749152834112,20417977,5600 KARL RD,North Church,House of Worship,378.0
39.95459427381576,-82.848648011519,20418067,2411 E MAIN ST,Bexley Public Library,Library,367.0
40.0355456,-82.9530469,20418072,3296 WESTERVILLE RD,Masjid Abu Hurairah,House of Worship,375.0
39.98547211848871,-82.95150766717325,20418080,455 MURRAY AVE,Valley View Church Of Christ,House of Worship,372.0
39.94660325,-82.99536825,20418105,80 COLUMBUS ST,David's United Church of Christ,House of Worship,382.0
39.90677795258265,-82.9952520154032,20418138,2684 COLUMBUS ST,Grove City United Methodist Church,House of Worship,359.0
39.98078071470311,-83.00193813556469,20418140,3500 1ST AVE,Vaughn E. Hairston YMCA,Community/Recreation Center,380.0
40.007644355570314,-82.79048856935755,20418153,1200 WAGGONER RD,Messiah Lutheran Church,House of Worship,367.0
40.01851587374362,-83.13594658896179,20418314,3600 LEAP RD,Hilliard Presbyterian Church,House of Worship,390.0
39.97248150587833,-82.96352978041412,20418317,310 GRANVILLE ST,Columbus Metropolitan Library - Gahanna,Library,371.0
39.9717389,-83.0027423,20418369,820 HIGH ST,Old Worthington Library,Library,379.0
39.917561410257306,-82.98361198971357,20418508,300 GROVEPORT RD,David Evangelical Lutheran Church,House of Worship,365.0
39.9717389,-83.0027423,20418564,775 HIGH ST,Worthington Presbyterian Church,House of Worship,379.0
40.01796441723348,-82.96893328792655,20418574,1901 ARLINGTON AVE,Miller Park Library,Library,373.0
39.895464011216674,-82.83430839079745,20418619,1402 BRICE RD,Columbus Metropolitan Library - Reynoldsburg,Library,377.0
39.97248150587833,-82.96352978041412,20418624,150 E GRANVILLE ST,Leo Yassenoff Jewish Community Center,Other,371.0
40.072798750000004,-83.1387618,20418670,4770 BRITTON PKWY,Crossing Community Church,House of Worship,389.0
39.94719930011812,-83.02207215623143,20418732,MT CALVARY AVE,Mt Calvary Cemetery,Cemetery,374.0
40.086392802093954,-82.96249791662984,20418735,400 W DUBLIN-GRANVILLE RD,Swiminc Worthington Pools,Community/Recreation Center,378.0
39.933671,-83.08993,20418751,1000 DEMOREST RD,Grace of God Luthern Church,House of Worship,370.0
40.108827329671335,-83.03730879289026,20418788,7080 OLENTANGY RIVER RD,Liberty Presbyterian Church,House of Worship,384.0
40.02028896832075,-83.00673400685163,20418789,825 E OLENTANGY ST,Powell United Methodist,House of Worship,376.0
40.12107893083495,-82.98810575695792,20418810,3600 DISCOVERY DR,Grove City YMCA,Community/Recreation Center,386.0
39.976084150000005,-83.150177,20418828,2929 HILLIARD & ROME RD,Hilliard First Baptist Church,House of Worship,390.0
39.98078071470311,-83.00193813556469,20418852,1685 W 1ST AVE,Grandview Heights Public Library,Library,380.0
39.94047355,-83.02466727041772,20418912,1000 GREENLAWN AVE,Green Lawn Cemetery ,Cemetery,361.0
39.96390934210526,-83.00086276315788,20419099,75 N HIGH ST,Columbus Metropolitan Library - Dublin,Library,379.0
40.107341007604006,-82.96273644769286,20419256,100 E SCHROCK RD,Grace Evangelical Lutheran Church,House of Worship,378.0
39.927014620343215,-82.92389520595303,20419283,471 E COLLEGE AVE,Westerville Christian Church,House of Worship,388.0
40.1473654217105,-82.9961397293047,20419325,9000 ANTARES AVE,State Convention of Baptists in Ohio,House of Worship,386.0
40.14740138202838,-82.99792562689362,20419365,8926 COMMERCE LOOP DR,Epic Life Church,House of Worship,386.0
39.97648068181818,-82.92267784090909,20419370,269 N GOULD RD,Glory Evangelistic Ministries,House of Worship,388.0
39.92756777634952,-82.98277536305918,20419381,490 E WOODROW AVE,Deliverance Church of God,House of Worship,365.0
39.95275240677966,-83.07511686440678,20419384,107 S POWELL AVE,Community Christian Church,House of Worship,370.0
40.0939126835443,-82.95981964556962,20419408,6175 MAPLE CANYON AVE,Iglesia de Dios Pentecostal Getsemani,House of Worship,378.0
39.95517081818181,-83.0711304090909,20419418,2660 W BROAD ST,Pentecostal Lighthouse,House of Worship,370.0
39.924247,-83.076345,20419438,3030 CLIME RD,Friends Worship Church,House of Worship,370.0
39.897636220969055,-83.04121598773285,20419439,2865 LAZAR RD,Now Faith in Action,House of Worship,361.0
39.9732528,-83.0038069070846,20419455,555 N HIGH ST,Greek Orthodox Cathedral,House of Worship,379.0
40.081147,-82.93782709301442,20419513,2965 E DUBLIN-GRANVILLE RD,The New Vision Church of Columbus,House of Worship,378.0
39.967026149999995,-82.9646650104851,20419516,1354 E BROAD ST,Congregation Tifereth Israel,House of Worship,371.0
39.956171487403516,-83.06207766406006,20419523,29 N WHEATLAND AVE,Community Garden,Other,370.0
39.969370782763484,-83.16190230600562,20419526,1001 DOHERTY RD,The Church of Jesus Christ of Latter-day Saints,House of Worship,390.0
39.993458148803235,-83.11549306693598,20419528,3880 GATEWAY BLVD,The Church of Jesus Christ of Latter-day Saints,House of Worship,368.0
39.99227755,-83.1018528735035,20419533,3860 TRABUE RD,Raymond Memorial Golf Course,Golf Course,368.0
40.051746978151,-83.05447098398612,20419541,1290 OLD HENDERSON RD,Capital City Church,House of Worship,385.0
39.973312,-83.092066,20419545,3220 LOWELL DR,The Potter's House Church of God,House of Worship,370.0
40.05106255,-82.97458290330366,20419559,1582 FERRIS RD,St. Matthias Church,House of Worship,378.0
39.9596528,-83.00666776324988,20419560,333 W BROAD ST,COSI ,Museum,379.0
39.95598048684939,-82.91895497371806,20419572,735 EASTMOOR BLVD,Eastmoor South Swim Club,Other,388.0
39.95949981632653,-82.9746298367347,20419577,263 CARPENTER ST,Blackburn Community Center,Community/Recreation Center,371.0
40.03812247534611,-82.93075158509161,20419578,3850 SUNBURY RD,Riverside Cemetery,Cemetery,375.0
40.01054328190483,-82.98034956682594,20419586,2210 LEXINGTON AVE,Maynard Ave Baptist Church,House of Worship,364.0
39.938296264999956,-83.05665445460664,20419590,853 CLARENDON AVE,Happy Home Baptist Church,House of Worship,370.0
40.009179411764705,-82.97002464705882,20419594,2080 CLEVELAND AVE,Pentecostal House Of Prayer,House of Worship,364.0
39.96065578187753,-82.98467504228786,20419610,586 E TOWN ST,Kelton House Museum and Garden,Museum,379.0
40.084052135692,-82.99753133417087,20419615,5862 SINCLAIR RD,Salem Baptist Church,House of Worship,378.0
39.9740701,-83.01015857997473,20419620,610 NEIL AVE,Ethiopian Orthodox Tewahedo Church,House of Worship,383.0
39.98324255,-82.97957659883417,20419625,870 ST CLAIR AVE,Higher Ground Always Abounding Assemblies,House of Worship,366.0
39.962166763157896,-83.0018715,20419644,34 W BROAD ST,Palace Theatre,Theater/Concert Hall,379.0
39.97723178172119,-82.99956267445054,20419645,168 E LINCOLN ST,St. John The Baptist Catholic Church,House of Worship,380.0
39.94422205437341,-83.06925513476735,20419653,2637 SULLIVANT AVE,Faith Community,House of Worship,370.0
39.9028694,-83.0524392,20419662,2525 GANTZ RD,Pleasant View Baptist Church,House of Worship,361.0
39.98179785000001,-82.98628357155204,20419683,668 E 2ND AVE,Rose of Sharon Baptist Church,House of Worship,366.0
39.91327948309055,-82.88285929679216,20419684,4241 EASTLAND SQUARE DR,All Nations Pentecost,House of Worship,388.0
40.048081,-82.98753137433337,20419702,1166 E COOKE RD,Masjid AI Huda Center,House of Worship,378.0
40.08631389999999,-82.97217154269644,20419726,1755 E DUBLIN-GRANVILLE RD,Unity Baptist Church,House of Worship,378.0
39.944312,-83.069686,20419787,2622 SULLIVANT AVE,Hilltop Worship Center,House of Worship,370.0
40.10073366307378,-82.95252063697072,20419814,1377 COMMUNITY PARK DR,Amvets Post 89,Other,378.0
39.958097880000004,-83.03388752,20419818,1245 W BROAD ST,West Broad Missionary Chapel,House of Worship,374.0
39.986961199999996,-83.00807274362083,20419826,95 W 5TH AVE,Shining Light Bible Mission Church,House of Worship,383.0
40.01703142857143,-82.96264985714285,20419854,1718 MYRTLE AVE,Victory Deliverance Church,House of Worship,375.0
40.019143,-82.965126,20419862,2535 CLEVELAND AVE,Masjid As-Sahaba Mosque,House of Worship,373.0
39.96270855555555,-82.99564611111111,20419909,181 E BROAD ST,Columbus Club,Other,379.0
39.89729210459139,-82.97850463450422,20419924,632 HILOCK RD,Columbus Freewill Baptist Church,House of Worship,359.0
40.06225475,-82.9915485244423,20419929,1048 MORSE RD,The Apostolic Church International,House of Worship,378.0
40.055809,-82.87398,20419942,4456 MORSE RD,St Luke Lutheran Church,House of Worship,392.0
40.076248,-82.928697,20419949,5093 WESTERVILLE RD,Crusaders Ministry,House of Worship,378.0
39.91826214346066,-83.11707458584085,20419960,1800 GEORGESVILLE SQUARE DR,Regal Cinemas Georgesville Square 16,Theater/Concert Hall,363.0
39.93029634235062,-83.09036291695634,20420006,1159 DEMOREST RD,Unity Christian Fellowship,House of Worship,370.0
40.02065455,-83.09650099651407,20420007,3232 INDIAN VILLAGE RD,Scioto Boat Club,Other,368.0
39.90819877272727,-82.96665679545454,20420010,2801 LOCKBOURNE RD,Marion Franklin Community Center,Community/Recreation Center,359.0
39.9868792,-83.00638940940817,20420011,25 W 5TH AVE,New Life United Methodist Church,House of Worship,383.0
39.94004,-83.142896,20420023,536 NORTON RD,La Gran Comision Wesleyan Church,House of Worship,363.0
39.97090322857143,-82.97978108571428,20420063,835 MT VERNON AVE,The King Arts Complex,Theater/Concert Hall,371.0
40.091756,-82.950668,20420099,5899 CLEVELAND AVE,Korean United Methodist Church,House of Worship,378.0
40.00115093939394,-83.00566739393939,20420111,82 16TH AVE,Summit on 16th United Methodist Church,House of Worship,362.0
39.954235868686865,-83.01521068686868,20420113,667 SULLIVANT AVE,Dodge Community Center,Community/Recreation Center,374.0
40.060095849999996,-82.9804359685175,20420171,1479 MORSE RD,Ascension Lutheran Church,House of Worship,378.0
39.954627,-83.02506,20420184,900 W RICH ST,Franklinton Gardens,Other,374.0
40.085565,-82.97476251139678,20420211,5796 KARL RD,Faith Life Family Church,House of Worship,378.0
39.976167853470635,-82.96368187466156,20420215,1466 ATCHESON ST,Mt Zion Church of God in Christ,House of Worship,371.0
40.00554536679969,-82.95412319524819,20420244,1825 WOODLAND AVE,Jordan Bible Church,House of Worship,372.0
39.973705836734695,-83.00529081632652,20420248,120 W GOODALE ST,Goodale Park Shelterhouse,Other,383.0
39.955434062500004,-82.97445206249999,20420268,920 E FULTON ST,Church Harvest International Ministry,House of Worship,371.0
39.9181856,-82.93212655384615,20420270,2565 PERFORMANCE WAY,Agudas Achim Cemetery,Cemetery,359.0
39.98887233526343,-82.9479134222556,20420309,2128 LEONARD AVE,New Genesis Baptist Church,House of Worship,372.0
39.90923,-82.966577,20420332,2699 LOCKBOURNE RD,Marion Franklin Swimming Pool,Other,359.0
39.98519885714286,-83.006228,20420349,43 W 4TH AVE,Agathos Church,House of Worship,383.0
39.913266417872045,-82.8824275639051,20420375,4277 EASTLAND SQUARE DR,The Institute of Divine Metaphysical Research,House of Worship,388.0
39.95736101800936,-83.00075770210613,20420388,566 W RICH ST,Franklinton Playhouse,Theater/Concert Hall,379.0
39.91841491076961,-82.98181866931924,20420389,485 STAMBAUGH AVE,Apostolic Holy Temple,House of Worship,365.0
39.92625785235258,-82.9940598498907,20420390,274 1/2 E INNIS AVE  ,Tara Hall Social Clubs,Other,365.0
39.988834049999994,-83.05085784822421,20420396,1665 W 5TH AVE,Ohio Craft Museum,Museum,369.0
40.08867447608219,-82.96950130584284,20420426,5918 SHARON WOODS BLVD,ZOMI Christian Church,House of Worship,378.0
39.97842615,-83.00877369363846,20420427,177 W HUBBARD AVE,House of Hope,House of Worship,383.0
40.0640402,-83.0519568,20420435,1220 BETHEL RD,Bethel United Methodist Church,House of Worship,385.0
39.931500521134524,-83.10913711325583,20420453,4205 CLIME RD,Big Run Athethic Complex,Community/Recreation Center,370.0
39.95490448979592,-83.0732965510204,20420463,2745 W BROAD ST,St. John Evangelical Lutheran Church,House of Worship,370.0
39.944832195699796,-83.06694865243728,20420465,2550 SULLIVANT AVE,St. Matthew,House of Worship,370.0
39.9582437,-83.0349516,20420482,1288 W BROAD ST,Amazing Grace Baptist Church,House of Worship,374.0
39.94935731578947,-82.96168047368421,20420548,1334 E LIVINGSTON AVE,Rickenbacher House,Historic,360.0
40.151413149999996,-82.98455745590971,20420556,1250 GEMINI PL,Polaris Church,House of Worship,386.0
40.07731894466907,-83.03917436873367,20420560,5707 OLENTANGY RIVER RD,Northwest Church of the Nazarene,House of Worship,385.0
40.0535661372183,-82.92326415532085,20420572,3599 CHILLER LN,Resolute Athletic Complex,Community/Recreation Center,375.0
39.97879914285714,-82.96081563265307,20420576,560 TAYLOR AVE,Jerusalem Tabernacle Baptist,House of Worship,371.0
40.04356425,-83.01918179166667,20420583,3989 N HIGH ST,First Church of Christ Scientist,House of Worship,376.0
39.94417397256589,-83.09347228471977,20420591,501 JOSEPHINE AVE,The Desert Island Club,Other,370.0
39.99385021420736,-82.96481790893445,20420597,1322 SIGSBEE AVE,Sigsbee Avenue Church of God,House of Worship,372.0
39.923394,-83.09171025,20420605,1444 DEMOREST RD,Moose Lodge 11,Other,370.0
39.963015391304346,-82.9760547826087,20420610,906 OAK ST,Central Seventh Day Adventist Church,House of Worship,371.0
39.91685345905174,-82.90587483017268,20420619,3425 REFUGEE RD,Saint Michael Ethiopian Orthodox Church,House of Worship,388.0
40.0041434,-83.01883805,20420633,229 WOODY HAYES DR,OSU Ice Rink,Arena/Stadium,362.0
39.962742,-82.99678666666667,20420641,136 E BROAD ST,Athletic Club of Columbus,Other,379.0
40.012330915596024,-83.02857784256976,20420659,2450 FRED TAYLOR DR,Jesse Owens Memorial Stadium,Arena/Stadium,393.0
39.95384355496909,-83.05914154665669,20420674,85 CLARENDON AVE,J. Ashburn Jr. Youth Center,Community/Recreation Center,370.0
39.99729871325418,-82.97655072686861,20420680,1122 WINDSOR AVE,Greater Liberty Temple,House of Worship,364.0
39.98279810378298,-82.96480220164077,20420699,1442 BLISS ST,Canaan Temple Church,House of Worship,372.0
40.07442335519379,-83.01711130003008,20420706,35 E STANTON AVE,Gethsemane Lutheran Church,House of Worship,376.0
39.95481044827586,-83.07863089655173,20420727,2930 W BROAD ST,Hoge Memorial Presbyterian Church,House of Worship,370.0
39.96818985,-82.99695550864669,20420740,260 N 4TH ST,Central Ohio Fire Museum,Museum,379.0
39.942049,-82.994853,20420785,1000 CITY PARK AVE,Actor's Theatre Co,Theater/Concert Hall,382.0
39.97724657142857,-82.97397342857143,20420790,1071 HALLIDON AVE,Calvary Tremont Baptist Church,House of Worship,371.0
40.068107,-83.092939,20420797,4900 SAWMILL RD,Carriage Place Community Center,Community/Recreation Center,385.0
40.02455807692307,-83.00322323076924,20420825,382 E WEBER RD,Christ International Church,House of Worship,376.0
40.0607876,-83.0917586,20420830,3750 W HENDERSON RD,First Alliance Church,House of Worship,385.0
39.941759,-82.844124,20420833,1761 BAIRSFORD DR,Oromo Lutheran Church,House of Worship,367.0
39.921116974158934,-82.85099758137048,20420848,5225 REFUGEE RD,Church Of Our Lady Of The Miraculous Medal,House of Worship,377.0
39.962793,-82.974667,20420860,955 OAK ST,New Faith Baptist Church,House of Worship,371.0
40.01158535414932,-82.9491942918075,20420896,2244 MOCK RD,Power of Faith International Ministry,House of Worship,375.0
39.9940333,-83.0063887,20420897,1550 N HIGH ST,Gateway Film Center,Theater/Concert Hall,362.0
40.01988512140647,-82.96732800960417,20420899,1634 MINNESOTA AVE,True Love Ministries,House of Worship,373.0
39.94839011111112,-83.032908,20420919,425 S PRINCETON AVE,Club Princeton,Other,374.0
39.92997365,-82.99529926738731,20420924,1570 S HIGH ST,Club Voodoos,House of Worship,365.0
40.023561,-82.964257,20420981,1783 MELROSE AVE,North Linden Baptist Church,House of Worship,373.0
39.98338603618405,-82.98120876386531,20421006,858 E 3RD AVE,Triedstone Missionary Baptist Church,House of Worship,366.0
39.87590202589661,-82.82638871770308,20421013,5263 GENDER RD,Glory To God Ministries,House of Worship,377.0
39.956332443968144,-83.04865465676275,20421046,1775 W BROAD ST,Friendship Baptist Church,House of Worship,370.0
39.89716356322261,-82.97917372223084,20421066,599 HILOCK RD,Columbus Primitive Baptist Church,House of Worship,359.0
39.987131158890115,-82.99967754852557,20421071,1209 N 4TH ST,Higher Life Christian Center,House of Worship,362.0
39.893469350000004,-82.8818786961802,20421088,3980 S HAMILTON RD,Columbus Metropolitan Library - Southeast,Library,377.0
39.930855,-82.977689,20421091,675 E MARKISON AVE,Lincoln Park Community Baptist,House of Worship,365.0
39.90528479282526,-82.96517984454738,20421094,1132 WATKINS RD,Solid Rock Church of Christ,House of Worship,359.0
40.052721950000006,-82.98868914970288,20421147,4251 MAIZE RD,Maize Road Baptist Church,House of Worship,378.0
39.905233599782584,-82.96407066195597,20421177,1196 WATKINS RD,Hosack Street Church Sharing,House of Worship,359.0
40.099744048589784,-82.99326253642968,20421178,6600 BUSCH BLVD,International Christian Center,House of Worship,378.0
39.9355757276002,-82.90749781134654,20421186,3494 BEXVIE AVE,Christ Centered Apostolic Church,House of Worship,388.0
39.957949,-82.978592,20421194,775 E MAIN ST,Eiliud Christian Missionary Center,House of Worship,371.0
39.97717045,-82.85597483967662,20421197,5419 E BROAD ST,Temple Israel,House of Worship,367.0
39.947026,-82.919649,20421198,2875 E LIVINGSTON AVE,The Bishop Griffin Center,House of Worship,388.0
39.9964145,-83.00507298019974,20421217,79 E 12TH AVE,The Church of Jesus Christ of Latter-day Saints,House of Worship,362.0
39.89083372810155,-82.97439356322019,20421227,116 E WILLIAMS RD,New Creation MCC,House of Worship,359.0
40.01379375757576,-82.96850081818182,20421240,1550 E HUDSON ST,St. Augustine & Gabriel Church,House of Worship,373.0
39.958249,-82.96076099999999,20421241,385 MILLER AVE,Agape Family Worship Center,House of Worship,371.0
39.92143081481481,-82.96536788888888,20421244,2200 LOCKBOURNE RD,The City of David Church,House of Worship,365.0
39.9298657496011,-83.10166649047778,20421248,3880 CLIME RD,Garden City Church,House of Worship,370.0
39.96044695,-83.0010944869254,20421262,77 S HIGH ST,Vern Riffe Center for Government and the Arts,Theater/Concert Hall,379.0
39.934868713724086,-82.9720463458542,20421287,857 FREBIS AVE,Little Rock Church of Christ Apostolic Faith,House of Worship,365.0
40.00946795,-82.99113818630806,20421299,1 BLACK AND GOLD BLVD,MAPFRE Stadium,Arena/Stadium,399.0
40.07271205331273,-82.92855729550566,20421331,4938 WESTERVILLE RD,North Park Church of Christ,House of Worship,378.0
39.928570802693095,-83.06332447707554,20421335,3231 BRIGGS RD,Briggs Road Baptist Church,House of Worship,370.0
39.93834193785175,-83.07212321417232,20421364,2801 EAKIN RD,VFW Post 4044,Other,370.0
40.063882274582554,-83.05946019437536,20421367,1508 BETHEL RD,Shark Tank Poker Club ,Other,385.0
40.063145,-82.93413,20421370,4444 WESTERVILLE RD,Northeast Baptist Church,House of Worship,378.0
40.05180775,-82.95404206008966,20421383,4055 CLEVELAND AVE,Linh Son Pagoda of Ohio Buddhist Temple,House of Worship,378.0
39.93963142857143,-82.9896027857143,20421391,238 THURMAN AVE,Cross City Church,House of Worship,365.0
40.01605050656414,-83.00862535105323,20421392,283 E DUNCAN ST,Young Timothy Christian Fellowship,House of Worship,362.0
39.96219595033998,-82.95549146907626,20421425,1677 OAK ST,Muslim Community Center,Other,371.0
40.003196829630134,-82.9386095447649,20421441,2618 BETHESDA AVE,Praise Temple Community Church,House of Worship,372.0
39.958002799999996,-83.03605546666667,20421442,1336 W BROAD ST,Breaking Chains Outreach Ministries,House of Worship,374.0
39.955211,-82.961008,20421469,533 MILLER AVE,Church Of Christ,House of Worship,371.0
40.046369,-83.0199465,20421470,4131 N HIGH ST,Overbrook Presbyterian Church,House of Worship,376.0
40.093493949999996,-82.93364159385297,20421494,6000 COOPER RD,Vineyard Coumbus ,House of Worship,378.0
40.10022390322581,-82.85646070967742,20421508,4877 CENTRAL COLLEGE RD,Quest Community Church,House of Worship,392.0
39.99961048346932,-82.94159824593837,20421510,2425 HOLT AVE,Eternal Life of Christ,House of Worship,372.0
40.042757649539816,-82.92866235776665,20421529,3360 PATRIOT BLVD,New Destiny Ministries,House of Worship,375.0
39.93711037476821,-82.90406414221101,20421539,3366 E DESHLER AVE,Liv-Moor Swimming Pool,Other,388.0
39.94095225,-82.91094925,20421551,1480 ZETTLER RD,Christ United Methodist Church,House of Worship,388.0
39.9469795,-82.97159083333334,20421560,878 S OHIO AVE,Tabernacle Abundant Love,House of Worship,365.0
40.05243245,-82.95432244453184,20421564,4093 CLEVELAND AVE,Columbus Metropolitan Library - Northern Lights,Library,378.0
39.960228898764285,-82.99891601395082,20421624,39 E STATE ST,Ohio Theatre,Theater/Concert Hall,379.0
40.14072682540624,-82.96554143396395,20421686,8405 PULSAR PL,Quest Conference Center,Convention Center,386.0
39.97635135224819,-82.96844709294753,20421699,487 N CHAMPION AVE,Greater Glory Ministries,House of Worship,371.0
39.89083372810155,-82.97439356322019,20421705,1140 E WILLIAMS RD,Augnat Ministries,House of Worship,359.0
40.00537688063315,-82.95414311389477,20421715,1815 WOODLAND AVE,Church Of Pentacost,House of Worship,372.0
40.00067825,-83.00936970649272,20421784,1871 N HIGH ST,Mershon Auditorium,Theater/Concert Hall,362.0
40.03881960553781,-82.93055036146582,20421800,3880 SUNBURY RD,Islamic Cemetery,Cemetery,375.0
39.964042,-82.914055,20421802,360 S JAMES RD,Fairmoor Presbyterian Church,House of Worship,388.0
39.945107,-82.935234,20421830,1175 COLLEGE AVE,Jewish Foundation of Columbus,Other,388.0
39.9560564,-82.9987183,20421864,21 E MAIN ST,Southern Theatre,Theater/Concert Hall,379.0
40.00872990402704,-83.02562013487724,20421872,650 BORROR DR,Bill Davis Baseball Stadium,Arena/Stadium,393.0
40.01120132291879,-82.9408902999969,20421903,2520 MOCK RD,Willis Athletic Complex,Community/Recreation Center,375.0
39.95362796610169,-83.0751776779661,20421906,61 S POWELL AVE,Westgate United Methodist Church,House of Worship,370.0
39.96751444444444,-82.953581,20421908,1777 E BROAD ST,Franklin Park Conservatory and Botanical Gardens,Other,371.0
40.030322166666664,-83.01497122222221,20421913,15 CLINTON HEIGHTS AVE,Clinton Heights Lutheran Church,House of Worship,376.0
39.91839745760059,-82.97827711643234,20421916,608 STAMBAUGH AVE,Mt Carmel Community Baptist Church,House of Worship,365.0
39.963463999999995,-82.98906054761905,20421934,444 E BROAD ST,First Congregational Church,House of Worship,379.0
39.98365339285714,-82.96032942857143,20421935,806 TAYLOR AVE,Goodwill Baptist Church,House of Worship,372.0
39.90819535135135,-83.0907564054054,20421952,3653 BIG RUN SOUTH RD,House of Blessing Worship Center,House of Worship,370.0
39.9474065549311,-83.0846461678143,20421956,344 S ALGONQUIN AVE,Parkview United Methodist Church,House of Worship,370.0
39.975582,-83.086785,20421981,1001 VERA PL,Church Triumphant,House of Worship,368.0
39.94874692307692,-82.95263061538462,20421986,1681 E LIVINGSTON AVE,Pentecostal Church of God,House of Worship,360.0
40.072309000000004,-82.97859724287432,20421991,5147 KARL RD,Woodward Park Community Center,Community/Recreation Center,378.0
39.95090687911603,-82.97778382002215,20422002,760 E LIVINGSTON AVE,Livingston Park,Community/Recreation Center,360.0
39.95639,-82.968437,20422006,1107 E MOUND ST,New Zion Baptist Church ,House of Worship,371.0
39.95762953322923,-82.95493865833826,20422007,1660 E MAIN ST,St. Luke Baptist Church,House of Worship,371.0
39.936705992217036,-83.1122204871415,20422014,4207 WESTVIEW CENTER PLZ,Somali Bravanese Community Center,Other,370.0
40.0809025,-82.97515121479442,20422031,5590 KARL RD,Columbus Metropolitan Library - Karl Road,Library,378.0
40.063964,-83.066701,20422054,1735 BETHEL RD,Bethel Presbyterian Church,House of Worship,385.0
39.94691693039349,-82.9777273578342,20422058,850 S 18TH ST,Guiding Light Christian Center,House of Worship,365.0
39.94316544305489,-82.98293540605867,20422069,1004 PARSONS AVE,Church United Restoration,House of Worship,365.0
40.004930606060604,-82.9605550909091,20422080,1783 23RD AVE,God in Christ Tab Church,House of Worship,372.0
40.07457879540471,-83.0391094866154,20422085,5586 OLENTANGY RIVER RD,Christian Community Church,House of Worship,385.0
39.94754384782609,-83.02958502173912,20422093,1155 W MOUND ST,Cooper Stadium,Arena/Stadium,374.0
39.90974507698341,-82.9558746810733,20422094,2727 BULEN AVE,Emmanuel Memorial Church,House of Worship,359.0
39.922647,-82.894271,20422139,3840 KIMBERLY PKWY N,K-Chalet Recreation Club ,Other,388.0
39.895464011216674,-82.83430839079745,20422175,2475 BRICE RD,Q. Daniel Crease Multicultural Center,Theater/Concert Hall,377.0
40.00989026407823,-83.00569869325903,20422187,154 E PATTERSON AVE,Parroquia Santa Cruz Parish,House of Worship,362.0
39.98234603515033,-82.95046773248056,20422198,701 SUNBURY RD,Greater Christ Temple,House of Worship,372.0
39.91185334969489,-82.99135292259618,20422223,146 BENFIELD AVE,Benfield Christian Church,House of Worship,359.0
39.948395500000004,-83.0911034284195,20422247,3417 PALMETTO ST,Immanuel Baptist Church,House of Worship,370.0
39.990185249999996,-83.01418552555612,20422250,299 KING AVE,King Avenue United Methodist Church,House of Worship,362.0
39.96747416326531,-82.9990462244898,20422255,227 N 3RD ST,MadLab Theatre,Theater/Concert Hall,379.0
39.957433,-82.953046,20422260,1725 E MAIN ST,Bethlehem Temple Apostolic Church,House of Worship,371.0
39.89158313043478,-82.83454069565217,20422267,3919 BRICE RD,Dayspring Community Church,House of Worship,377.0
40.011801500000004,-83.00887938157446,20422304,55 E BLAKE AVE,Central Vineyard Church,House of Worship,362.0
40.0327324,-82.98741398676471,20422320,994 OAKLAND PARK AVE,Oakland Park-Peace United Methodist Church,House of Worship,373.0
39.957399395539234,-83.02889509151004,20422323,60 S CYPRESS AVE,Stewart Memorial Christian Methodist Church,House of Worship,374.0
39.95077435,-83.00059760784279,20422327,543 S FRONT ST,Germania,Other,381.0
40.01081699263213,-82.98152899423587,20422351,2220 MCGUFFEY RD,New Haven Church,House of Worship,364.0
40.067862399999996,-82.98556718846768,20422353,5006 ALMONT DR,Northland Swim Club,Other,378.0
40.02429461255535,-83.02981859709656,20422360,580 RIVERVIEW DR,Omar Ibn El-Khattab Mosque,House of Worship,393.0
39.924367849999996,-82.99250079999999,20422379,106 E BARTHMAN AVE,Sonshine Mission Church,House of Worship,365.0
39.9512081,-83.1532403,20422431,3780 W BROAD ST,Amvets Post 1928,Other,363.0
39.97255459723737,-82.97144405100742,20422471,1158 MT VERNON AVE,Meredith Temple Church of God,House of Worship,371.0
40.0323387,-82.96318485,20422493,1871 DUNBAR DR,Radiant Destiny Fellowship,House of Worship,373.0
39.99687890909091,-83.006875,20422498,18 E 12TH AVE,Buckeyes for Christ,House of Worship,362.0
39.96374211764706,-82.98003511764706,20422509,26 S GARFIELD AVE,OTE Community Garden,Other,371.0
40.03553936585366,-82.91008921951219,20422514,3035 STELZER RD,Easton Community Church,House of Worship,375.0
40.043056,-83.019048,20422525,3951 N HIGH ST,Clintonville Woman's Club,Other,376.0
40.08740134556117,-82.97910613726579,20422533,1450 E DUBLIN-GRANVILLE RD,St. Andrew Presbyterian Church,House of Worship,378.0
40.09408688235294,-82.96753776470588,20422537,6176 SHARON WOODS BLVD,Church Of The Good Shepherd United Methodist ,House of Worship,378.0
39.99625335105955,-82.96193559850684,20422561,1672 WINDSOR AVE,Ephphatha Outreach Ministries,House of Worship,372.0
39.872969545454545,-82.82643436363637,20422605,5336 GENDER RD,Gender Road Christian Church,House of Worship,377.0
39.91343811545207,-82.88256297074987,20422618,4264 EASTLAND SQUARE DR,Iglesia Evangelica Apostoles y Profetas,House of Worship,388.0
39.9418806969697,-82.90659892929293,20422625,1500 BARNETT RD,Southeast Christian Academy,House of Worship,388.0
39.91109915700755,-82.8024651794029,20422626,7180 REFUGEE RD,Jehovah's Witnesses,House of Worship,367.0
39.97780337214901,-82.98972774890184,20422631,668 CLEVELAND AVE,Fort Hayes Officer's Quarters,Historic Site,398.0
40.07098435,-82.97576507067238,20422636,5100 KARL RD,Epworth United Methodist Church,House of Worship,378.0
39.992204993906434,-82.94875956847824,20422647,1401 WOODWARD AVE,Evergreen Cemetery,Cemetery,372.0
40.00734020519825,-82.97208836175456,20422664,1374 25TH AVE,Fresh Oil Christian Center,House of Worship,364.0
40.061221,-83.07501,20422679,5100 DIERKER RD,Covenant Baptist Church,House of Worship,385.0
40.114606699999996,-83.00976231069035,20422702,200 HUTCHINSON AVE,Marcus Crosswoods Cinema,Theater/Concert Hall,386.0
39.99785224457057,-82.97402374312612,20422735,1561 CLEOPHUS KEE BLVD,Greater 12Th Baptist Church,House of Worship,364.0
40.0076033,-83.02495665257419,20422758,555 BORROR DR,Schottenstein Center,Arena/Stadium,393.0
39.90530470588236,-82.9535381617647,20422762,2660 RHOADS AVE,Columbus Bible Way Church,House of Worship,359.0
40.0001822871567,-83.0223291706587,20422774,1790 CANNON DR,Women's Field House,Arena/Stadium,362.0
39.964981800000004,-82.98013953472005,20422792,760 E BROAD ST,Broad Street Presbyterian Church,House of Worship,371.0
39.94518447821314,-82.89684359839677,20422801,1330 COURTRIGHT RD,Kingdom of God Christ Jesus,House of Worship,388.0
40.09162138461538,-82.95067787179487,20422815,5885 CLEVELAND AVE,The Redeemed Church of God,House of Worship,378.0
40.0207274,-82.9669794,20422860,1643 ABERDEEN AVE,Grace New Covenant Apostolic,House of Worship,373.0
39.952806,-83.064076,20422862,116 S WAYNE AVE,Wayne Avenue House of God,House of Worship,370.0
39.95258602214275,-83.06644830258315,20422864,122 S TERRACE AVE,Church Of The Living God,House of Worship,370.0
40.00165446433439,-82.97496163452792,20422868,1741 CLEVELAND AVE,Linden Cleve Cultural Arts Extension Center,Theater/Concert Hall,364.0
39.95771945833333,-83.02428104166667,20422901,78 MARTIN AVE,Agape Full Gospel Ministries,House of Worship,374.0
39.926850988012866,-82.88364185319591,20422911,4215 DONLYN CT,Redeemer Assembly of God Church,House of Worship,388.0
39.97838508163265,-82.96990126530612,20422915,1255 LEONARD AVE,Calvary Tremont Baptist Church,House of Worship,371.0
40.08930834756969,-82.95063608827125,20422924,5858 CLEVELAND AVE,St John Chrysostom Church,House of Worship,378.0
39.947546,-82.982813,20422940,793 PARSONS AVE,Church International Outreach Ministries,House of Worship,365.0
39.995463864583336,-83.00995072916668,20422947,25 W 11TH AVE,Barrister Club,Theater/Concert Hall,362.0
39.9841464,-83.0045728706253,20422949,1066 N HIGH ST,Short Stop Youth Center,Community/Recreation Center,380.0
39.93132514285714,-82.96860777551021,20422950,1650 WILSON AVE,Smyrna Baptist Church,House of Worship,365.0
40.02242,-83.09591944026316,20422952,3033 THOBURN RD,Griggs Reservoir Boathouse,Other,368.0
39.962941,-82.995068,20422981,198 E BROAD ST,The Roman Catholic Diocese of Columbus,House of Worship,379.0
40.05502381251636,-83.02260827394718,20422987,93 W WEISHEIMER RD,First Unitarian Universalist,House of Worship,376.0
39.968960536151286,-82.97697094535431,20422993,186 N 17TH ST,Second Baptist Church,House of Worship,371.0
39.95390515529338,-83.06087786115111,20423013,83 S HIGHLAND AVE,Community Garden,Other,370.0
39.9512081,-83.1532403,20423025,5955 W BROAD ST,Prairie Township Community Center,Community/Recreation Center,363.0
40.03965039251173,-82.95128536113805,20423037,3415 WESTERVILLE RD,Templo Cristiano Emanuel,House of Worship,375.0
39.91373841618556,-83.06595617529247,20423050,2400 RED ROCK BLVD,The Church of Jesus Christ of Latter-day Saints,House of Worship,361.0
39.983373,-82.979843,20423054,900 ST CLAIR AVE,Higher Ground Family Life Center,House of Worship,366.0
40.0265,-82.940362,20423065,2747 AGLER RD,Faith Ministries Church,House of Worship,375.0
39.9560111,-82.9730638,20423088,441 GILBERT ST,Greater New Hope Deliverance Center,House of Worship,371.0
40.010805,-82.962243,20423096,2121 JOYCE AVE,New Jerusalem MBC ,House of Worship,372.0
39.967574841990746,-82.97352463311343,20423118,100 N 20TH ST,Greater Vision Missionary Baptist,House of Worship,371.0
39.94864537367673,-82.95067412249216,20423122,1757 E LIVINGSTON AVE  ,VFW Post 3764,Other,360.0
39.90800960196853,-82.95333196445225,20423177,2516 RHOADS AVE,Friendly Community Church,House of Worship,359.0
39.93247355,-82.99246783627554,20423189,120 SOUTHWOOD AVE,Freedom Reign Christian Center,House of Worship,365.0
40.0027961,-83.00364453222679,20423193,1954 INDIANOLA AVE,Friends Quaker Meeting,House of Worship,362.0
39.92369642211774,-82.87976254807376,20423204,2596 S HAMILTON RD,AMC Movie Theater,Theater/Concert Hall,388.0
40.100628,-82.956201,20423211,1265 HILDRETH AVE,God & Saints Christ Church,House of Worship,378.0
39.9372333,-82.98934035274281,20423225,225 E GATES ST,St. Paul United Church of Christ,House of Worship,365.0
40.00614325938962,-83.01096770657156,20423230,64 W LANE AVE,St. Thomas More Newman Center,House of Worship,362.0
39.957805,-82.971933,20423231,1015 E MAIN ST,First English Lutheran Church,House of Worship,371.0
39.94515379504936,-83.0814845097777,20423238,455 S WESTGATE AVE,Westgate Community Center,Community/Recreation Center,370.0
39.93639254360862,-83.06223861659883,20423240,2435 EAKIN RD,Memorial Baptist Church,House of Worship,370.0
39.969654131313135,-83.00971227272727,20423248,405 NEIL AVE,Express Live,Theater/Concert Hall,379.0
40.03972504802502,-82.95123215361753,20423251,3439 WESTERVILLE RD,The Filipinas Centre,Other,375.0
39.976699181818184,-83.10401509090909,20423295,3745 BUSINESS PARK DR,Guru Nanak Religious Society Sikh Temple,House of Worship,368.0
39.97046008163265,-82.90571424489796,20423302,120 S NAPOLEON AVE,Peace Missionary Baptist Church,House of Worship,388.0
40.08305563625047,-82.94671792543613,20423313,2703 NORTHLAND PLAZA DR,Church High Praise International,House of Worship,378.0
39.9942896,-82.97939960513789,20423319,1413 ST CLAIR AVE,Eliezer Church of Christ,House of Worship,364.0
39.958012499999995,-82.98374525,20423368,592 E MAIN ST,Columbus Dance Theatre,Theater/Concert Hall,379.0
39.940329,-83.129871,20423423,600 FOX RIDGE ST,Hilltop-Cherry Creek YMCA,Community/Recreation Center,363.0
39.95181848,-82.97121996,20423427,648 S OHIO AVE,St John'S Center,House of Worship,360.0
39.960760980918295,-82.99560669430412,20423439,176 E STATE ST,Chabad of Downtown Columbus,Other,379.0
39.94172886297428,-83.13225109912784,20423441,4977 SULLIVANT AVE,Cherry Creek Church of Christ,House of Worship,363.0
39.991220049999995,-82.94066725098685,20423443,2320 AIRPORT DR,Dominican Sisters of Peace,House of Worship,372.0
40.05184105,-82.98864350329848,20423446,4211 MAIZE RD,Unity Church of Christianity,House of Worship,378.0
39.987717094408325,-82.91546439044505,20423451,404 S 3RD ST,Trinity Evangelical Lutheran Church,House of Worship,387.0
40.085946406737406,-82.95352620271969,20423460,5656 KATHY RUN LN 14,House of Safety Christian Church,House of Worship,378.0
39.935314302993376,-82.90578384299339,20423462,3601 BEXVIE AVE,Calvary Christian Fellowship,House of Worship,388.0
40.0668737,-83.08708413376206,20423492,2570 BETHEL RD,Cinemark,Theater/Concert Hall,385.0
39.97360369230769,-82.96551153846153,20423502,1358 MT VERNON AVE,Mt Vernon Missionary Baptist Church,House of Worship,371.0
40.01161621052631,-82.96877042105262,20423504,2189 CLEVELAND AVE,The Elevation Church,House of Worship,364.0
39.96308165,-83.00029440950634,20423515,30 N HIGH ST,Church Of Scientology of Columbus,House of Worship,379.0
39.967124,-82.98153,20423516,769 E LONG ST,Lincoln Theatre,Theater/Concert Hall,371.0
39.987129,-83.003938,20423518,46 E 5TH AVE,Iglesia Dulce Refugio,House of Worship,362.0
40.014077,-82.978787,20423524,1173 E HUDSON ST,Masjid Ummat Rassul Mosque,House of Worship,364.0
40.0014836768324,-82.97483321544506,20423536,1750 CLEVELAND AVE,Linden Cleve Theater,Theater/Concert Hall,364.0
40.06980015542281,-82.99834016638374,20423539,5055 SINCLAIR RD,Alrosa Villa,Theater/Concert Hall,378.0
39.958279812499995,-83.032390125,20423557,1187 W BROAD ST,Jericho's Light Club,House of Worship,374.0
39.95634295652174,-82.96587573913044,20423570,1231 E MOUND ST,Holy Miracle Church of God,House of Worship,371.0
39.968336,-83.006699,20423582,175 W NATIONWIDE BLVD,Studio Movie Grill - Arena Grand,Theater/Concert Hall,379.0
39.92357525,-82.99155584815878,20423617,142 HINKLE AVE,Chùa Thường Quang Buddhist Temple,House of Worship,365.0
39.99401,-82.987293,20423655,600 E 11TH AVE,Martin Janis Community Senior Center,Community/Recreation Center,399.0
39.975274,-82.96616,20423674,1380 ATCHESON ST,Maryland Swimming,Other,371.0
40.00612693339315,-83.01060853464925,20423680,50 W LANE AVE,University Baptist Church,House of Worship,362.0
39.99667188311724,-82.95467106327003,20423685,1340 WOODLAND AVE,Eastlawn Cemetery ,Cemetery,372.0
39.91128515384615,-82.95700387692308,20423694,2645 FAIRWOOD AVE,Cathedral of Praise Greater Ebenezer,House of Worship,359.0
39.98217995882857,-82.9605024077476,20423795,744 TAYLOR AVE,Columbus Eagles Motorcycle Club & Grill,Other,372.0
39.944398,-82.969325,20423803,1015 OAKWOOD AVE,Mt Calvary Church of God In Christ,House of Worship,365.0
39.9865757,-83.0056941,20423814,1187 N HIGH ST,Short North Stage,Theater/Concert Hall,383.0
40.02383916274333,-83.11301776992359,20423818,3500 MILL RUN DR,North American Lutheran Church,House of Worship,368.0
39.87850936363636,-82.98711063636364,20423827,575 OBETZ RD,Heritage Free Will Baptist Church,House of Worship,359.0
40.1062893,-83.0874202,20423837,2699 FARMERS DR,Profiles of Faith,House of Worship,384.0
40.024514,-82.961923,20423868,2782 WESTERVILLE RD,Redeemed Christian Church of God,House of Worship,373.0
39.9211445,-83.09778700000001,20423890,1571 DEMOREST RD,American Legion Post 532,Other,370.0
40.02557400445854,-82.96601593216941,20423905,1743 E LAKEVIEW AVE,Grace Apostolic Church,House of Worship,373.0
40.084144249999994,-82.97423669880767,20423915,5750 KARL RD,Karl Road Baptist Church,House of Worship,378.0
39.9159706967196,-82.97246793302806,20423919,861 BELLEVUE AVE,The Apostolic Lighthouse,House of Worship,359.0
39.91101715401491,-82.99241000940745,20423922,106 DELRAY RD,Power for Change,House of Worship,359.0
39.97019260559953,-82.96979991255756,20423924,247 N OHIO AVE,Beatty Community Center,Community/Recreation Center,371.0
39.96249286102329,-82.96090894653659,20423934,1478 OAK ST,Promise Land Church,House of Worship,371.0
39.95060868627451,-83.07350862745098,20423941,204 S HAGUE AVE,Hilltop Community Garden,Other,370.0
39.95730110109315,-83.0267517943165,20423945,89 AVONDALE AVE,Avondale United Methodist Church,House of Worship,374.0
40.07139445147774,-82.86256162171516,20423972,1375 S HAMILTON RD,Living Word Bible Fellowship,House of Worship,392.0
39.971868,-82.96807685714285,20424023,266 N CHAMPION AVE,Union Grove Baptist Church,House of Worship,371.0
39.904610251863375,-82.95131390673188,20424067,1614 WATKINS RD,Southfield Church of Christ,House of Worship,359.0
39.86249143599067,-82.99855363560764,20424070,464 RATHMELL RD,Grace Ministries,House of Worship,359.0
40.119794784520984,-83.00938475306708,20424087,7700 CROSSWOODS DR,St. John AME Church,House of Worship,386.0
40.07335986431171,-83.0519862752445,20424090,1200 BROOKRIDGE DR,Sycamore Hills Swim Club,Other,385.0
40.005407,-83.02041491019419,20424100,460 WOODY HAYES DR,French Field House,Arena/Stadium,362.0
40.07987306387657,-82.87575847400825,20424108,4481 E DUBLIN-GRANVILLE RD,Christ Fellowship Church,House of Worship,392.0
39.893461,-82.98188300000001,20424121,550 RUMSEY RD,Apostolic Church of Truth,House of Worship,359.0
39.992404,-82.964906,20424125,1535 DEWEY AVE,Mt Zion Missionary Baptist Church,House of Worship,372.0
40.0623028,-82.9782762956209,20424152,4681 KARL RD,RCCG Triumph Chapel,House of Worship,378.0
40.00580505156914,-82.97209699826239,20424153,1934 CLEVELAND AVE,Mount Zion International,House of Worship,364.0
39.939374,-83.087504,20424208,719 ATHENS AVE,Burnside Baptist Church,House of Worship,370.0
39.888015304347824,-82.96822630434782,20424211,3599 LOCKBOURNE RD,Amvets Post 1312,Other,359.0
39.94555871428572,-83.01920173469388,20424220,817 RENICK ST,Mt Ararat Baptist Church,House of Worship,374.0
40.0619554345472,-82.91780514248241,20424240,5000 SUNBURY RD,Life Church at Easton,House of Worship,378.0
39.944379,-82.98284038461539,20424249,944 PARSONS AVE,United Methodist Church for all People,House of Worship,365.0
40.02985445,-82.97120415,20424264,414 E NORTH BROADWAY,Immaculate Conception Church,House of Worship,373.0
40.10611175,-83.06684146521866,20424274,6899 SMOKY ROW RD,St Peter Roman Catholic Church,House of Worship,384.0
39.91162330034855,-83.15523754723799,20424277,6005 ALKIRE RD,Mentel Memorial Golf Course,Golf Course,363.0
39.942516677419356,-83.09872638709678,20424302,3750 SULLIVANT AVE,The Bridge Community Center,Community/Recreation Center,370.0
39.952565,-83.069042,20424353,120 S BURGESS AVE,Iglesia Nuevos Principios,House of Worship,370.0
39.993654125,-82.9828165,20424388,877 E 11TH AVE,Linden Life Fellowship,House of Worship,364.0
39.94467918181818,-83.06772904545454,20424392,2578 SULLIVANT AVE,Faith Community Church,House of Worship,370.0
39.96141199942176,-82.99235330289272,20424422,1759 S 6TH ST,Trinity Freewill Baptist Church,House of Worship,379.0
39.9870365,-82.98842928571429,20424433,1104 CLEVELAND AVE,Kingdom Life Church,House of Worship,366.0
40.07600255,-82.95228048954318,20424438,5215 CLEVELAND AVE,Jesus Power Assembly of God,House of Worship,378.0
40.05598776099225,-82.95318250689557,20424448,4254 CLEVELAND AVE,Christ International Church,House of Worship,378.0
39.9295459,-82.9843537,20424486,1653 PARSONS AVE,Faith Tabernacle IPCC,House of Worship,365.0
40.03438865656565,-83.03177453535353,20424490,3660 OLENTANGY RIVER RD,Olentangy Church,House of Worship,393.0
39.9850434788531,-82.92730111992728,20424492,2860 E 5TH AVE,Living Hope Omega Ministries,House of Worship,387.0
39.970563,-82.98239,20424501,720 MT VERNON AVE,Shiloh Baptist Church,House of Worship,371.0
39.9392304,-83.0612966,20424519,2364 W MOUND ST,St. Agnes Church,House of Worship,370.0
39.8893541,-82.99711424483547,20424521,3540 S HIGH ST,Columbus Metropolitan Library - South High,Library,359.0
39.907690639240734,-82.99625878481457,20424523,60 W CASTLE RD,Shamrock Club of Columbus,Other,359.0
39.915206,-82.876084,20424534,4501 REFUGEE RD,Masjid Namrah,House of Worship,377.0
39.9931197065571,-82.96370989810885,20424537,1264 LEE AVE,Lee Avenue United Methodist Church,House of Worship,372.0
40.01314630753059,-82.9345115763,20424545,1993 SUNBURY RD,Baha'i Faith,House of Worship,375.0
40.09911570076888,-82.94170383161887,20424546,6345 PRESIDENTIAL GATEWAY,Gateway Film Center,Theater/Concert Hall,378.0
39.95464291176471,-83.07867311764706,20424553,2925 W BROAD ST,West Gate Lodge F & AM No 623,Other,370.0
39.97171188235294,-82.97968679411764,20424560,331 N GARFIELD AVE,Emmanuel Tabernacle Baptist Church ,House of Worship,371.0
40.03312650793651,-83.04576925396826,20424574,1088 THOMAS LN,St Timothy Catholic Church,House of Worship,393.0
39.949773,-82.970251,20424614,1030 E LIVINGSTON AVE,True Vine Ministries,House of Worship,360.0
39.96171649274563,-82.98526796365354,20424617,549 FRANKLIN AVE,The Columbus Performing Arts Center,Theater/Concert Hall,379.0
39.949644285714285,-82.96759442857143,20424633,1130 E LIVINGSTON AVE,Bethany Christian Church,House of Worship,360.0
39.975018666666664,-82.96664866666667,20424669,1345 ATCHESON ST,Union Tabernacle of God,House of Worship,371.0
39.93915329092944,-82.86573418268428,20424674,1826 LATTIMER DR,Far East Community Center,Community/Recreation Center,388.0
39.926511,-82.856091,20424704,5081 CARBONDALE DR,Gethsemane United Methodist Church,House of Worship,377.0
39.9467418,-82.90442263887502,20424710,3434 E LIVINGSTON AVE,Columbus Metropolitan Library - Barnett,Library,388.0
39.907892534090905,-82.96668050568181,20424756,2840 LOCKBOURNE RD,Bethel Temple Church,House of Worship,359.0
39.92816842921511,-82.90194676359802,20424784,3420 PETZINGER RD,New Fellowship Baptist Church,House of Worship,388.0
39.960421,-83.015903,20424804,584 W BROAD ST,Holy Family Church,House of Worship,374.0
39.945395088235294,-83.04929320588235,20424821,514 COLUMBIAN AVE,Hilltonia United Methodist Church,House of Worship,370.0
39.95764392307692,-82.95559946153847,20424826,1634 E MAIN ST,Apostolic Faith Temple,House of Worship,371.0
39.97367025,-82.97331675,20424842,381 N 20TH ST,Refuge Baptist Church,House of Worship,371.0
39.98762413191202,-82.9881036844789,20424860,1135 CLEVELAND AVE,Church In Jesus Christ,House of Worship,366.0
40.03355152941177,-83.10292802941177,20424864,3915 DUBLIN RD,Lifepoint Church of the Nazarene,House of Worship,368.0
40.0513465,-83.02044585,20424876,7 W HENDERSON RD,Maple Grove United Methodist,House of Worship,376.0
40.00161124594227,-82.97474816937181,20424904,1758 CLEVELAND AVE,Uplift Christ Outreach Center,House of Worship,364.0
40.092615078138635,-82.97032158322389,20424908,5959 SHARON WOODS BLVD,Sharon Woods Baptist Church,House of Worship,378.0
39.987731206896555,-82.97893920689654,20424919,1018 SHOEMAKER AVE,House of God New Covenant Church,House of Worship,366.0
39.95545373076923,-82.96824688461538,20424924,492 OAKWOOD AVE,Macedonia Baptist Church,House of Worship,371.0
39.97723178172119,-82.99956267445054,20424959,168 LINCOLN ST,St. John the Baptist,House of Worship,380.0
39.94650985714286,-82.91013195238095,20424969,3227 E LIVINGSTON AVE,American Legion Bexley Post 430,Other,388.0
39.974701654895796,-83.09374800459058,20424990,3330 EL PASO DR,Hope City House Of Prayer,House of Worship,368.0
39.994175301379315,-82.99911992110086,20424995,1426 S 4TH ST,Trinity Shepherd Lighthouse Ministries,House of Worship,362.0
40.12634094354945,-82.983235383536,20425016,653 PARK RD,Park Road Church of Christ,House of Worship,386.0
39.961966,-82.966429,20425034,201 WILSON AVE,Dvine Kingdom Builders,House of Worship,371.0
39.9358844,-83.1600948,20425054,775 GALLOWAY RD,Columbia Heights United Methodist Church,House of Worship,363.0
40.117760323232325,-83.01632811111111,20425065,7459 N HIGH ST,York Golf Course,Golf Course,386.0
39.958253937500004,-83.032605375,20425068,1199 W BROAD ST,Resurrection Outreach International Ministries,House of Worship,374.0
39.922694050000004,-82.9860528256271,20425112,344 HOSACK ST,Fathers House,House of Worship,365.0
39.992995,-82.995965,20425193,1441 N GRANT AVE,American Legion Post 1,Other,362.0
39.99344480466911,-83.11512420415602,20425196,3870 GATEWAY BLVD,Columbus Ohio Temple,House of Worship,368.0
39.94646371085118,-83.06144484878679,20425207,453 S WHEATLAND AVE,Bible-Way Church of Our Lord,House of Worship,370.0
40.04998005,-82.98915924759908,20425214,4141 MAIZE RD,Columbus Chinese Christian Church,House of Worship,378.0
40.06772275,-83.04591408390083,20425235,5099 POSTLEWAITE RD,Grace Presbyterian Church,House of Worship,385.0
40.0327324,-83.0151127,20425247,35 OAKLAND PARK AVE,Columbus Mennonite Church,House of Worship,376.0
39.96116663518851,-83.08632806366353,20425250,231 N ALGONQUIN AVE,Joan Heights Church of Christ,House of Worship,370.0
40.010422,-82.987363,20425256,827 E MAYNARD AVE,Revival Covenant Church,House of Worship,364.0
39.93003643506004,-82.81560532036066,20425265,6954 AMERICANA PKWY,Equip U Ministries,House of Worship,367.0
40.10578055,-83.06366542108849,20425268,7260 SMOKY ROW RD,Smoky Row Brethren Church,House of Worship,384.0
39.896752112312235,-82.99518399220845,20425289,3176 S HIGH ST,Judah Tabernacle,House of Worship,359.0
39.96637858620689,-82.9724607586207,20425290,26 N 21ST ST,Pilgrim Baptist Church,House of Worship,371.0
39.92552905,-82.99384002408206,20425294,52 REEB AVE,Unity Temple Church of God in Christ,House of Worship,365.0
39.94167215776803,-82.86714324009955,20425297,1660 LATTIMER DR,Walnut Heights Baptist Church,House of Worship,388.0
39.98099555,-82.98034880165493,20425305,781 ST CLAIR AVE,Victory Christian Fellowship Church,House of Worship,366.0
40.02419092307692,-82.92845288461538,20425306,2505 N CASSADY AVE,Howard Community Center,Community/Recreation Center,375.0
39.908142,-83.119241,20425321,2199 HOLT RD,Redeemers Church West,House of Worship,363.0
40.1151178,-83.08936021464658,20425331,7350 SAWMILL RD,Fellowship Lutheran Church,House of Worship,384.0
39.9644002,-82.98778017236617,20425340,480 E BROAD ST,Columbus Museum of Art,Museum,379.0
40.04540485,-82.9893396776003,20425342,3901 MAIZE RD,Maize Manor United Methodist Church,House of Worship,373.0
40.03789936446793,-82.94721344053102,20425348,3400 KOHR BLVD,New Covenant Believers Church,House of Worship,375.0
40.002422,-82.998453,20425367,1934 N 4TH ST,Xenos Christian Fellowship,House of Worship,362.0
40.03428705,-82.9835038252784,20425377,3350 ATWOOD TER,Faith Community Wesleyan Church,House of Worship,373.0
39.94759345,-82.90515479238587,20425384,1184 BARNETT RD,Barnett Community Center,Community/Recreation Center,388.0
39.923533,-83.043464,20425417,1542 GREENLEAF RD,Southwest Freewill Baptist Church,House of Worship,361.0
39.974117,-82.98077,20425421,461 ST CLAIR AVE,Trinity Baptist Church,House of Worship,371.0
39.983713,-83.003389,20425426,49 E 3RD AVE,Columbus First Free Will Baptist,House of Worship,380.0
39.9246529,-82.98816490757903,20425463,277 REEB AVE,St. Ladislas Church,House of Worship,365.0
39.98212261724449,-82.99430094767335,20425473,237 W 2ND AVE,Grace Central Presbyterian Church,House of Worship,380.0
40.08240515676888,-83.05351608211855,20425480,5970 GODOWN RD,Christian Fellowship Church,House of Worship,385.0
39.98536429208436,-83.05236143576501,20425481,1739 W 3RD AVE,Columbus Italian Club,Other,369.0
39.977159929479406,-82.96375373304504,20425505,507 BASSETT AVE,Holy Miracle Church of God,House of Worship,371.0
40.02720266666667,-82.95555266666666,20425552,2116 AGLER RD,Rhema Christian Center,House of Worship,375.0
39.936797,-82.897572,20425565,1712 COURTRIGHT RD,Mt Sinai Holy Temple Church,House of Worship,388.0
40.144920299999995,-83.0013439890397,20425591,9480 S OLD STATE RD,Korean Presbyterian Church Of Columbus,House of Worship,386.0
40.0621805,-82.9653347,20425602,4625 MORSE CENTRE,Gillie Community Senior Center,Community/Recreation Center,378.0
39.9565653130625,-82.96331885834263,20425603,462 KIMBALL PL,Mt Period Baptist Church,House of Worship,371.0
40.054257400000004,-82.9410852,20425619,4142 WESTERVILLE RD,First Free Methodist Church,House of Worship,375.0
39.95548928319014,-83.02872952693328,20425646,165 S CYPRESS AVE,Crossroads World Christian Center Church,House of Worship,374.0
39.88067645348838,-83.00160338372093,20425670,4080 S HIGH ST,Scioto Southland Civic Association,Community/Recreation Center,359.0
39.962515,-82.9677895,20425672,1215 OAK ST,Church Of Living God,House of Worship,371.0
39.970455,-82.95715618181818,20425694,130 WOODLAND AVE,Eldon & Elise Ward Family YMCA,Community/Recreation Center,371.0
39.962712499999995,-82.96858125,20425699,1186 OAK ST,Greater Faith Temple Apostolic,House of Worship,371.0
40.0097526,-83.01644542307936,20425709,240 W OAKLAND AVE,Tuttle Park Community Center,Community/Recreation Center,362.0
39.966657104166664,-82.96282754166667,20425730,1428 E BROAD ST,Islamic Center,House of Worship,371.0
39.988493,-83.03686,20425739,1150 W 5TH AVE,St. Luke's United Methodist Church,House of Worship,369.0
39.9975303,-83.00626649804423,20425775,45 E 13TH AVE,Jacob's Porch Lutheran Campus Ministry,House of Worship,362.0
39.957361902404465,-82.83833251744801,20425779,1055 MCNAUGHTEN RD,Vineyard Christian Church,House of Worship,367.0
39.946524,-82.906405,20425784,1223 BARNETT RD,Christ Memorial Baptist Church ,House of Worship,388.0
40.05936,-83.175907,20425789,6729 HAYDEN RUN RD,Hayden Run Enterprise Baptist Church,House of Worship,389.0
40.1049706,-82.95586108794072,20425801,1340 COMMUNITY PARK DR,Xenos Christian Fellowship,House of Worship,378.0
39.95740996774194,-82.95200393548387,20425803,1759 E MAIN ST,Apostolic Worship & Praise,House of Worship,371.0
40.14665975,-82.98627813922717,20425819,1071 GEMINI PL,Rave Motion Pictures,Theater/Concert Hall,386.0
40.05955045,-82.99727641884829,20425822,4611 GLENMAWR AVE,Holy Resurrection,House of Worship,378.0
39.96678469230769,-82.9844675897436,20425823,639 E LONG ST,St. Paul AME Church,House of Worship,379.0
39.970995,-82.957112,20425832,166 WOODLAND AVE,St. Philip  Episcopal Church,House of Worship,371.0
40.0324368,-82.98048683444318,20425843,1230 OAKLAND PARK AVE,Linden Lutheran Church,House of Worship,373.0
39.95497538071263,-83.06661241139629,20425855,12 S TERRACE AVE,Veritas Community Church,House of Worship,370.0
39.9685473329808,-82.98502127353964,20425896,618 E SPRING ST,Merry Makers Club,Other,379.0
39.972664600624014,-83.00447561117997,20425908,512 PARK ST,Columbus Children's Theatre,Theater/Concert Hall,379.0
39.92493555,-82.99030585,20425922,191 REEB AVE,Mountain Assembly of God,House of Worship,365.0
40.100729348350896,-82.95242338975493,20425947,1393 COMMUNITY PARK DR,Church Of God Of Prophecy,House of Worship,378.0
39.946063,-83.060348,20425967,2300 SULLIVANT AVE,Westside Community Center,Community/Recreation Center,370.0
39.953336863636366,-83.0205744090909,20426000,787 SULLIVANT AVE,Pentecostal Sons of God Church,House of Worship,374.0
39.9397572,-82.98362834468105,20426016,1167 PARSONS AVE,Fraternal Order Of Eagles,Other,365.0
40.01867638076294,-83.00601675447793,20426034,220 CLIFFSIDE DR,Glen Echo United Presbyterian Church,House of Worship,362.0
39.963826375,-82.970274375,20426056,86 S OHIO AVE,Christ Bible Church,House of Worship,371.0
39.961978099999996,-83.00817172368644,20426075,300 W BROAD ST,Ohio Veteran's Memorial,Museum,379.0
39.939404,-82.915592,20426080,1555 S JAMES RD,Redeemer Lutheran Church,House of Worship,388.0
40.000848817106586,-82.93897046724236,20426100,1525 SUNBURY RD,Christian Outreach Ministries,House of Worship,372.0
39.98870525,-82.97985710311886,20426143,1145 ST CLAIR AVE,St. John Baptist Church,House of Worship,366.0
40.03202615,-82.97013865395871,20426144,1614 OAKLAND PARK AVE,St. James the Less St Vincent,House of Worship,373.0
39.9574497,-82.9542499,20426145,1678 E MAIN ST,A Ministry of Hope and Healing,House of Worship,371.0
39.97298911111111,-82.96901814814815,20426153,1248 MT VERNON AVE,Mt Calvary Holy Church,House of Worship,371.0
39.954096,-83.089954,20426160,3361 W BROAD ST,West Broad Church of Christ,House of Worship,370.0
40.05547636081627,-82.95321463972,20426163,4220 CLEVELAND AVE,Christ Presbyterian Church,House of Worship,378.0
39.954235,-83.087151,20426170,3253 W BROAD ST,Hope City House Of Prayer,House of Worship,370.0
40.099809302400374,-82.99015937161758,20426174,990 KINGSMILL PKWY,Anthem Of Hope,House of Worship,378.0
39.91810619134847,-82.97581921142145,20426175,727 STAMBAUGH AVE,Church Christ Southern Missionary Church,House of Worship,365.0
39.88986117174077,-82.87941520541642,20426182,4041 HAMILTON SQUARE BLVD,Holiday Inn Express Hotel & Suites,House of Worship,377.0
40.1049804,-83.08779483563279,20426233,3728 SNOUFFER RD,North Columbus Baptist Church,House of Worship,384.0
40.002406,-82.974238,20426238,1790 CLEVELAND AVE,Greater Works Church of God,House of Worship,364.0
39.93534836898523,-83.05617922958025,20426247,1007 MIDLAND AVE,Full Gospel Sons of God Church,House of Worship,370.0
39.938824298125816,-82.9558828879849,20426249,1505 E DESHLER AVE  ,Southeast Apostolic Mission,House of Worship,365.0
39.99945515,-83.00248475198066,20426269,199 E 15TH AVE,Lighthouse Church In Columbus,House of Worship,362.0
39.95366665517241,-83.02580324137931,20426287,290 AVONDALE AVE,Avondale Community Garden,Other,374.0
40.00989449749819,-83.00578043455067,20426295,150 E PATTERSON AVE,Holy Name Church,House of Worship,362.0
39.981552719084796,-82.98201946958393,20426303,862 E 2ND AVE,Milo-Grogan Community Center,Community/Recreation Center,366.0
40.086713200000005,-82.969608,20426304,4411 TAMARACK BLVD 100,Northland Performing Arts Center ,Theater/Concert Hall,378.0
39.97388593877551,-82.95572259183673,20426305,1731 GREENWAY AVE,United House of Prayer,House of Worship,371.0
39.982055,-82.962234,20426345,1528 OLD LEONARD AVE,World Overcomers Ministries,House of Worship,372.0
39.992372,-82.94975,20426372,1200 BRENTNELL AVE,The Church of Christ of the Apostolic Faith,House of Worship,372.0
39.99037839688828,-82.91751730649953,20426402,3242 E 11TH AVE,New Beginning Services,House of Worship,387.0
40.1328695055402,-83.08510224984023,20426411,2309 SUMMIT VIEW RD,Living Peace Church of the Brethren,House of Worship,384.0
39.9199901578692,-82.9188938513144,20426431,4701 WINCHESTER PIKE,Fellowship Baptist Church,House of Worship,388.0
40.0623455497324,-83.01868764210018,20426439,23 MORSE RD,New Apostolic Church,House of Worship,376.0
39.9827928,-83.0170466,20426442,1071 MICHIGAN AVE,Taiwanese Christian Church,House of Worship,394.0
39.892646023038175,-82.96763659775999,20426472,3328 LOCKBOURNE RD,Crossroads United Baptist Church,House of Worship,359.0
39.9684094,-83.0118794,20426482,330 HUNTINGTON PARK LN,Huntington Park,Arena/Stadium,379.0
39.957569,-82.98774700000001,20426484,428 E MAIN ST,Mount Olivet Baptist Church,House of Worship,379.0
39.98347665,-82.9801885,20426550,899 ST CLAIR AVE,Agape Outreach Ministries,House of Worship,366.0
39.95625033333333,-82.906643,20426553,3431 E MAIN ST,World of Pentecost,House of Worship,388.0
40.07266385,-82.95259687364128,20426576,5075 CLEVELAND AVE,Cross Roads Baptist Church,House of Worship,378.0
39.955444982105085,-82.85109748818219,20426577,1185 NOE-BIXBY RD,First Baptist Church,House of Worship,367.0
39.9548955,-82.997683,20426581,50 E MOUND ST,Mound Street Community Garden,Other,379.0
40.061094875,-82.91921325,20426588,4925 SUNBURY RD,Lamb of God Lutheran Church,House of Worship,378.0
39.88199079331725,-82.9973509437785,20426594,145 OBETZ RD,Living Word Church,House of Worship,359.0
39.9513545,-83.02742575,20426614,1066 BELLOWS AVE,Lower Lights Community Church of the Nazarene,House of Worship,374.0
39.98033644007613,-82.9142660019576,20426632,3350 ALLEGHENY AVE,Christ Cathedral Church,House of Worship,388.0
39.937345500000006,-82.99250320458478,20426642,119 E GATES ST,Gates-Fourth United Methodist Church,House of Worship,365.0
40.04073163157895,-83.01841092105263,20426646,3865 N HIGH ST,Calvary Bible Church,House of Worship,376.0
39.961304,-82.98946646006789,20426656,96 S GRANT AVE,Columbus Main Library,Library,379.0
40.01486750733409,-83.01156302965616,20426744,2575 N HIGH ST,P3 Magic Theatre,Theater/Concert Hall,362.0
39.986325,-82.983951,20426748,800 E 5TH AVE,Abundant Faith Church of God,House of Worship,366.0
39.937485153846154,-82.97250553846155,20426749,1325 S OHIO AVE,Ohio Avenue Meeting Hall,Other,365.0
39.959629050000004,-83.02458002649925,20426772,894 W BROAD ST,The Nest Theatre Comedy Club,Theater/Concert Hall,374.0
39.96951135609608,-82.83698272807489,20426782,530 MCNAUGHTEN RD,Prince of Peace Lutheran Church,House of Worship,367.0
39.94179981626068,-83.07004321294781,20426786,650 S WARREN AVE,End Time Apostolic,House of Worship,370.0
39.922690599999996,-82.98852453262333,20426809,258 HOSACK ST,Reeb-Hosack Community Baptist Church,House of Worship,365.0
40.02871992671882,-83.02910681976324,20426840,3349 OLENTANGY RIVER RD,Union Cemetery,Cemetery,393.0
40.00164575,-83.01973744224524,20426851,411 WOODY HAYES DR,Ohio Stadium,Arena/Stadium,362.0
40.11322802307103,-82.9937273791854,20426853,7349 WORTHINGTON-GALENA RD,Vista Community Church,House of Worship,386.0
39.959284434194565,-82.84983713618318,20426870,1000 NOE-BIXBY RD,Bethany Lutheran Church,House of Worship,367.0
39.95879033333333,-83.01529173333334,20426873,72 S GIFT ST,Old Franklinton Post Office,Historic Site,374.0
40.126538636363634,-83.08986433333334,20426876,7860 SAWMILL RD,Apostolic Christian Church,House of Worship,384.0
39.9974759,-83.0073721,20426885,1722 N HIGH ST,Newport Music Hall,Theater/Concert Hall,362.0
39.947433,-83.052173,20426889,1995 SULLIVANT AVE,Mt Pisgah Baptist Church,House of Worship,370.0
39.955269,-82.954736,20426892,581 SEYMOUR AVE,Bethel Baptist Missionary Church,House of Worship,371.0
39.98622424,-82.95260992,20426900,1921 E 5TH AVE,Church New Hope Church of God,House of Worship,372.0
40.072426991032955,-83.01687819290116,20426941,76 CHARLESTON AVE,North Baptist Church,House of Worship,376.0
39.91611485,-82.87546397373481,20426951,4500 REFUGEE RD,Ebenezer Baptist Church,House of Worship,377.0
39.97040392857143,-82.95737517857143,20426979,143 WOODLAND AVE,Woodland Christian Church,House of Worship,371.0
39.968877,-82.9610296,20427002,1506 E LONG ST,St. Philip Lutheran Church,House of Worship,371.0
40.03108,-82.960892,20427003,1911 OAKLAND PARK AVE,First Church-Christ Apostolic,House of Worship,373.0
39.97164992076287,-82.83699503303895,20427029,409 MCNAUGHTEN RD,Laurel Canyon Church of Christ,House of Worship,367.0
39.955034,-82.954491,20427035,1680 E FULTON ST,Good Samaritan Baptist Church,House of Worship,371.0
39.947353,-82.925736,20427042,2685 E LIVINGSTON AVE,Brookwood Presbyterian Church,House of Worship,388.0
40.0702327700842,-82.86253055499422,20427044,5524 N HAMILTON RD,Lazer Kraze,Other,392.0
39.947593,-82.95207475000001,20427050,959 BULEN AVE,Bethany Baptist Church,House of Worship,360.0
39.963686,-82.966292,20427097,115 WILSON AVE,Word Church of God in Christ,House of Worship,371.0
39.92475725,-82.98745964626775,20427109,295 REEB AVE,St. Ladislas Convent,House of Worship,365.0
40.08606495,-82.9748462,20427132,5800 KARL RD,Grace and Mercy Fellowship Center,House of Worship,378.0
40.08644005,-82.87721552742235,20427138,5400 LITTLE TURTLE WAY,The Golf Club at Little Turtle,Golf Course,392.0
40.0054147,-83.01913454662876,20427176,410 WOODY HAYES DR,St. John Arena,Arena/Stadium,362.0
39.910046739130436,-82.96651244927536,20427193,2665 LOCKBOURNE RD,Temple of Compassion Cathedral,House of Worship,359.0
39.99058642105263,-82.92560529824561,20427194,2940 E 11TH AVE,East Mt Olivt Baptist Church,House of Worship,387.0
39.92650165,-82.82188856874677,20427204,6519 TUSSING RD,Eastgate Assembly of God,House of Worship,367.0
40.016782176470585,-82.96533952941176,20427220,2432 CLEVELAND AVE,Ebenezer Haician,House of Worship,373.0
39.999325,-82.954406,20427259,2000 E 17TH AVE,Springhill Baptist Church,House of Worship,372.0
39.932622776177304,-83.07572141879162,20427262,1100 S HAGUE AVE,Crossroads United Methodist Church,House of Worship,370.0
39.955382150000005,-83.00334733643408,20427264,139 W MAIN ST,Columbus Cultural Arts Center,Other,379.0
39.93461692702059,-82.89776921787433,20427269,1850 COURTRIGHT RD,Redeemer's On Courtright,House of Worship,388.0
39.933248,-82.96464,20427277,1591 LOCKBOURNE RD,VFW Post 3426,Other,365.0
39.9716667,-83.155,20427283,5755 FEDER RD,The Church Next Door,House of Worship,390.0
40.01391916578187,-82.97505658840139,20427304,1311 E HUDSON ST,St. James Baptist Church,House of Worship,364.0
40.010984410535755,-83.0224067478139,20427341,2355 OLENTANGY RIVER RD,Nicklaus Museum,Museum,393.0
39.955388,-83.066492,20427374,2480 W BROAD ST,Hillcrest Baptist Church,House of Worship,370.0
39.99139325,-83.036934125,20427396,1118 KING AVE,Christian Science Second Church,House of Worship,369.0
40.024002949999996,-82.98767356413171,20427401,914 E WEBER RD,Life Church,House of Worship,373.0
39.95659229520505,-83.03270477486096,20427404,89 WEST PARK AVE,West Park United Methodist Church,House of Worship,374.0
39.983016785714284,-82.96018978571429,20427414,1632 OLD LEONARD AVE,God's House of Prayer,House of Worship,372.0
40.0143676,-82.98507839999999,20427421,931 E HUDSON ST,Word At Work Ministries,House of Worship,364.0
39.97534580737587,-82.97091132206468,20427439,455 TREVITT ST,Trevitt New Life Ministries,House of Worship,371.0
39.945021,-82.969059,20427455,996 OAKWOOD AVE,Family Missionary Baptist Church,House of Worship,365.0
40.0113824,-83.00213879827598,20427465,2350 INDIANOLA AVE,Maynard Avenue United Methodist,House of Worship,362.0
40.02985445,-82.97120415,20427474,48 E NORTH BROADWAY,North Broadway United Methodist Church,House of Worship,373.0
39.956475716181565,-82.9642875956365,20427481,1276 E MOUND ST,Mt Ivory Baptist Church,House of Worship,371.0
39.945696,-83.06114,20427495,496 S WHEATLAND AVE,First United Brethren In Christ,House of Worship,370.0
39.9529857,-82.99362965,20427522,200 E LIVINGSTON AVE,Livingston United Methodist Church,House of Worship,379.0
39.93124175,-82.98432280301793,20427557,1571 PARSONS AVE,Assembly Of Faith Church,House of Worship,365.0
40.023841450000006,-82.9828312433206,20427571,1088 E WEBER RD,The Way of Holiness Church,House of Worship,373.0
39.976592,-82.869443,20427576,4831 E BROAD ST,Columbus Country Club,Golf Course,367.0
39.954938454545456,-82.96698727272728,20427581,527 WILSON AVE,City of Zion Church,House of Worship,371.0
39.947177897959186,-82.92251671428572,20427583,2777 E LIVINGSTON AVE,Christ the King Catholic Church,House of Worship,388.0
39.990252587329174,-82.85924649625788,20427609,592 CLAYCRAFT RD,Science Kinetics,Museum,391.0
39.98960485,-83.01391166602941,20427624,1385 NEIL AVE,H2O Church,House of Worship,362.0
39.96848188888889,-82.96948038888888,20427642,1197 E LONG ST,Calhoun Temple Church,House of Worship,371.0
39.9858453,-83.01325056149281,20427667,296 W 4TH AVE,Fourth Avenue Christian Church,House of Worship,383.0
39.92371695,-82.98743100891264,20427669,293 E BARTHMAN AVE,Clair United Methodist Church,House of Worship,365.0
40.08317108188626,-82.95111927766393,20427671,5550 CLEVELAND AVE,Church At Northpoint,House of Worship,378.0
40.05231681962988,-83.00024995375537,20427681,4303 INDIANOLA AVE,UC Columbus,House of Worship,376.0
40.055816267495544,-82.97619068722037,20427695,4370 KARL RD,Mosque,House of Worship,378.0
39.93446771428572,-82.98082457142857,20427717,555 E MOLER ST,Refuge Temple Church,House of Worship,365.0
39.96855029930185,-82.98007164123841,20427720,206 N GARFIELD AVE,Bethany Presbyterian Church,House of Worship,371.0
39.95324244444445,-83.02200655555555,20427725,840 SULLIVANT AVE,Inner City Ministries,House of Worship,374.0
40.01757217681271,-82.96502312608692,20427753,2464 CLEVELAND AVE,Christ Liberated Sabbath Msn,House of Worship,373.0
39.96050733333333,-82.98594766666668,20427769,530 E TOWN ST,The Heritage Museum ,Museum,379.0
39.9557447,-82.9730766,20427775,457 GILBERT ST,The Holy Ghost Revival Center Church of Christ,House of Worship,371.0
39.986173622222225,-82.93141188888889,20427783,767 N CASSADY AVE,St. Thomas the Apostle,House of Worship,387.0
39.975518051416536,-82.980654322671,20427825,517 ST CLAIR AVE,Apostolic Glorious Church,House of Worship,371.0
40.031988350000006,-82.9694518563158,20427826,1652 OAKLAND PARK AVE,St James The Less Parish,House of Worship,373.0
39.98560595665343,-82.92345397428582,20427836,3007 E 6TH AVE,Living Word Ministries,House of Worship,387.0
39.8793684041644,-82.96444004256035,20427848,4299 LOCKBOURNE INDUSTRIAL PKWY,VFW Post 3424,Other,359.0
40.007767,-82.971129,20427875,2021 CLEVELAND AVE,Bethel AME Church,House of Worship,364.0
40.013647489795915,-82.96892016326531,20427899,1547 E HUDSON ST,The Good Shepherd Baptist Church,House of Worship,364.0
39.942053,-82.98815428998304,20427926,322 STEWART AVE,St. Paul's Lutheran Church & School,House of Worship,365.0
40.09896635,-83.0808816936328,20427941,7070 BENT TREE BLVD,Linworth United Methodist Church,House of Worship,384.0
39.91301982871235,-82.97473940370789,20427945,744 GLENDOWER AVE,Liberty Baptist Church,House of Worship,359.0
40.028506248443534,-83.01412038990162,20427948,29 E COMO AVE,Church On Como,House of Worship,376.0
40.016984347022074,-82.93410823615483,20427949,2283 SUNBURY RD,Mt Hermon Baptist Church,House of Worship,375.0
39.9970985,-82.99753124696048,20427955,365 E 13TH AVE,Living Hope Fellowship,House of Worship,362.0
40.062703400000004,-83.01185700436702,20427972,280 MORSE RD,Beechwold Christian Church,House of Worship,376.0
39.97582,-82.962727,20427975,443 JOHNSON ST,Emmanuel Community Baptist Church,House of Worship,371.0
40.01869149754512,-82.96005127573311,20427989,1889 GENESSEE AVE,Church Of Christ,House of Worship,375.0
40.0774551,-82.97454578345123,20427997,1640 SANDALWOOD PL,North YMCA,Community/Recreation Center,378.0
39.949247,-82.959413,20427998,1422 E LIVINGSTON AVE,Columbus Metropolitan Library - Driving Park,Library,360.0
40.117618224489796,-83.07583228571428,20428017,2280 HARD RD,Northwest Library,Library,384.0
39.91004875,-82.9662985,20428046,2740 LOCKBOURNE RD,Columbus Metropolitan Library - Marion-Franklin,Library,359.0
39.9868185,-83.0002225,20428076,181 E 5TH AVE,Fruit Of The Vine Community Center,Other,380.0
40.07139445147774,-82.86256162171516,20428078,1355 S HAMILTON RD,Reformation Lutheran Church,House of Worship,392.0
39.928873472451365,-82.99583108342115,20428116,1621 S HIGH ST,Southside Baptist Church,House of Worship,365.0
39.8914405,-82.829769,20428127,4595 GENDER RD,World Harvest Church,House of Worship,377.0
39.93844274193548,-83.05261632258065,20428131,853 BUTLER AVE,House of Prayer,House of Worship,370.0
40.03065922020873,-83.10297612686907,20428140,3777 DUBLIN RD,First Community Church,House of Worship,368.0
39.951508,-82.968556,20428152,684 OAKWOOD AVE,Holy Trinity Etheopian Orthodox,House of Worship,360.0
39.927622799925594,-82.89840198270018,20428178,2182 COURTRIGHT RD,Mount Carmel Worship Center,House of Worship,388.0
39.892702,-82.989389,20428184,275 COLTON RD,Southside Church of Christ,House of Worship,359.0
40.00143333020006,-82.95452976927311,20428185,1601 WOODLAND AVE,Greater St. Paul Church,House of Worship,372.0
39.94915441666667,-83.06029958333333,20428189,311 S HIGHLAND AVE,Second Community Church,House of Worship,370.0
39.95777571428571,-82.96237714285715,20428246,1390 E MAIN ST,Christ's Empowerment Ministries,House of Worship,371.0
40.07827795,-82.97532694120218,20428252,5400 KARL RD,Karl Road Christian Church,House of Worship,378.0
39.951427550000005,-83.00086991935191,20428262,503 S FRONT ST,Shadowbox Live,Theater/Concert Hall,381.0
39.89591145294954,-82.99538822765943,20428274,3253 S HIGH ST,American Legion,Other,359.0
40.01692337643639,-82.9887884250738,20428275,2555 PONTIAC ST,The Father's Heart International Church,House of Worship,373.0
39.950058142857145,-82.9579777142857,20428277,820 LILLEY AVE,Hope Lutheran Church,House of Worship,360.0
39.9567302569683,-82.9574205040208,20428291,480 LILLEY AVE,Image of God Ministries,House of Worship,371.0
39.92845755798165,-83.09605244406214,20428294,3699 CLIME RD,Anchor Baptist Church,House of Worship,370.0
40.041515200000006,-83.01938974790659,20428298,3909 N HIGH ST,Columbus Metropolitan Library - Whetstone,Library,376.0
40.01184724749468,-82.95502756796817,20428317,2020 MOCK RD,New Shiloh Full Gospel Missionary Baptist Church,House of Worship,375.0
39.931172,-83.090094,20428333,1112 DEMOREST RD,Trinity Assembly of God,House of Worship,370.0
39.995720250000005,-82.97901987925106,20428348,1494 CLEVELAND AVE,Mt Victory Baptist Church,House of Worship,364.0
39.941701,-82.885931,20428358,1573 ELAINE RD,St. Phillip the Apostle Catholic Church,House of Worship,388.0
39.946506899926334,-83.0579958503806,20428382,2216 SULLIVANT AVE,Church Of The Lamb Of God,House of Worship,370.0
40.10704047433924,-82.96517371186866,20428385,1970 SCHROCK RD,Worthington Moose Lodge 1427,Other,378.0
39.986846785714285,-82.94108607142857,20428391,853 N NELSON RD,Holy Spirit Church,House of Worship,372.0
39.98952333329432,-82.94120706750155,20428392,2330 AIRPORT DR,Martin De Porres Center,House of Worship,372.0
39.98462589915723,-82.91955542617946,20428400,3161 E 5TH AVE,Corinthian Missionary Baptist Church,House of Worship,387.0
40.02604485,-83.00182699603036,20428403,3055 INDIANOLA AVE,Studio 35 Cinema,Theater/Concert Hall,376.0
39.892882865508895,-82.83692998178903,20428406,5810 SHANNON RD,Place of Religious Worship,House of Worship,377.0
39.9606584,-82.97633549999999,20428424,873 BRYDEN RD,First A.M.E. Zion Church,House of Worship,371.0
39.949083,-82.959427,20428435,1425 E LIVINGSTON AVE,The Lords Table Ministries,House of Worship,360.0
39.995661300141705,-83.13797277081242,20428473,2436 WALCUTT RD,VFW Post 4931,Other,390.0
40.00678666709981,-83.00291639091976,20428495,2141 INDIANOLA AVE,Indianola Church of Christ,House of Worship,362.0
39.99675325,-82.97891022606869,20428497,1533 CLEVELAND AVE,Travelers' Rest Baptist Church,House of Worship,364.0
39.960354,-83.038792,20428523,127 N CENTRAL AVE,God's Glory Temple Church,House of Worship,374.0
39.94658942105263,-82.99750610526316,20428551,766 S HIGH ST,Zion Evangelical Lutheran Church,House of Worship,381.0
39.90878747623235,-82.96199513435417,20428552,1255 FABER AVE,Greater Grace Temple Apostolic Original Holy Church of God,House of Worship,359.0
39.95511505,-83.02779721001659,20428566,1061 W TOWN ST,Columbus Metropolitan Library - Franklinton,Library,374.0
40.06179906546883,-82.9334432773362,20428585,3191 THORNAPPLE DR,Columbus Ghanaian Seventh Day Adventist Church,House of Worship,378.0
39.97574933955453,-82.9706670761673,20428588,480 TREVITT ST,St. Mark Ame Church,House of Worship,371.0
39.92731923809524,-82.95627961904762,20428589,1402 SMITH RD,Smyrna Baptist Church,House of Worship,365.0
39.95560582608695,-83.05835482608695,20428608,2165 W BROAD ST,St. Aloysius,House of Worship,370.0
40.051574900000006,-82.97855004758333,20428622,4099 KARL RD,Christian Assembly,House of Worship,378.0
39.945884,-82.984476,20428658,476 E KOSSUTH ST,Wagner-Hagans Auto Museum,Museum,365.0
39.949596451157674,-83.05469515238332,20428700,286 BELVIDERE AVE,Imani Christian Church,House of Worship,370.0
39.98497771995222,-82.93038125511,20428731,2743 E 5TH AVE,The Church of Columbus ,House of Worship,387.0
39.95512697087082,-82.95320734232314,20428750,593 FAIRWOOD AVE,Royal Blood Christian Ministries,House of Worship,371.0
40.014480827586205,-83.01363255172414,20428765,2571 NEIL AVE,Open Air School Building,Historic,362.0
39.92874013971599,-83.06333241035276,20428770,2546 BRIGGS RD,Greater Columbus Church,House of Worship,370.0
39.94323082352941,-83.08464647058824,20428778,3220 SULLIVANT AVE,Westhill Church of Christ,House of Worship,370.0
40.01491395,-82.99883489999999,20428783,459 E HUDSON ST,Driven By Purpose Ministries,House of Worship,362.0
40.0995960874363,-82.94984253649166,20428826,6200 CLEVELAND AVE,Church of Pentecost,House of Worship,378.0
40.009102,-82.962546,20428833,2030 JOYCE AVE,Original Glorious Church of God in Christ,House of Worship,372.0
40.131476625,-83.016746875,20428851,8145 N HIGH ST,Worthington Christian Church,House of Worship,386.0
39.973195,-82.96786,20428856,1290 MT VERNON AVE,Gospel Tabernacle Food Pantry,House of Worship,371.0
39.999934,-82.949403,20428876,1533 BRENTNELL AVE,New Jerusalem Deliverance Church,House of Worship,372.0
39.922497866517645,-82.96419204003979,20428885,1228 MARION RD,Born to Win Ministries,House of Worship,365.0
39.926901064084554,-82.88440432100168,20428890,4293 DONLYN CT,Believers Fellowship Ministries,House of Worship,388.0
40.131804183372175,-82.99069776542498,20428892,8140 SANCUS BLVD,Lazelle Woods Community Center,Community/Recreation Center,386.0
39.991326,-82.8679201,20428914,900 HAMILTON RD,Airport Golf Course,Golf Course,391.0
40.07399404260886,-82.8319951992151,20428918,5021 HARLEM RD,New Albany Links Golf Club,Golf Course,392.0
40.014471,-82.983723,20428926,1000 E HUDSON ST,New Palistine Baptist Church,House of Worship,373.0
39.958893123458544,-83.03444486921752,20428942,33 CHICAGO AVE,Franklinton Vineyard ,House of Worship,374.0
40.02806227623208,-82.96417990133867,20428973,2956 CLEVELAND AVE,New Salem Baptist Church,House of Worship,373.0
39.974005,-83.002814,20428997,500 N HIGH ST,Greater Columbus Convention Center,Convention Center,379.0
39.92318359183673,-82.98925885714286,20429000,225 HINKLE AVE,Holy Ground Ministries,House of Worship,365.0
39.8929816576353,-82.98694409285288,20429015,3389 PARSONS AVE,Parsons Avenue Church of God,House of Worship,359.0
40.032055896551725,-83.11417855172414,20429049,3773 RIDGE MILL DR,Movie Tavern 12,Theater/Concert Hall,368.0
40.00006646932425,-82.79256753915136,20429076,745 WAGGONER GROVE BLVD,Eastpointe Christian Church,House of Worship,367.0
39.88203006182698,-82.99438692434134,20429082,210 OBETZ RD,Good Shepherd Community Church,House of Worship,359.0
39.897841650000004,-82.9922363685608,20429101,3050 S HIGH ST,South Drive-In Theatre,Theater/Concert Hall,359.0
40.099774924884656,-82.98192070273211,20429111,1555 CRANWOOD SQ N,Kingdom Hall of Jehovah's Witnesses,House of Worship,378.0
39.951645,-82.971447,20429121,657 S OHIO AVE,Ohio Avenue Youth Center,Community/Recreation Center,360.0
39.95284230612245,-83.09167136734693,20429123,35 DERRER RD,Abundant Life Tabernacle,House of Worship,370.0
40.00778455555555,-82.97088222222223,20429127,2040 CLEVELAND AVE,Sound Doctrine Baptist Fellowship Church,House of Worship,364.0
40.008816800000005,-83.00091336725447,20429133,2219 SUMMIT ST,St. Gregory of Nyssa Orthodox Church,House of Worship,362.0
39.9660471,-82.993109,20429136,300 E LONG ST,Long Street Studio,Theater/Concert Hall,379.0
39.93798577737023,-82.95453809967677,20429137,1428 FAIRWOOD AVE,Jehovah Rapha Outreach Church,House of Worship,365.0
40.01665358724832,-82.92907760402684,20429138,2300 N CASSADY AVE,Columbus Christian Center,House of Worship,375.0
39.98496685291703,-82.92495282930159,20429144,2954 E 5TH AVE,American Legion Post 157,Other,387.0
39.946404648720254,-83.08528737931137,20429146,3271 WICKLOW RD,Westgate Park Shelterhouse,Other,370.0
40.1232766646663,-82.98062966398436,20429151,1389 WORTHINGTON CENTRE DR,Worthington Park Library,Library,386.0
40.05789485,-82.95369120542762,20429152,4345 CLEVELAND AVE  ,New Mt. Sinai Church Of God In Christ,House of Worship,378.0
39.9648825,-83.00238825,20429163,40 W LONG ST,Downtown YMCA,Community/Recreation Center,379.0
39.986527550000005,-83.00645569596334,20429183,38 W GREENWOOD AVE,Rock City Church,House of Worship,383.0
39.99865834206543,-82.93981149284653,20429189,1415 SUNBURY RD,St. Mary Orthodox Tewahdo Church,House of Worship,372.0
39.946844652186016,-82.936442279024,20429201,1125 COLLEGE AVE  ,Jewish Community Center,Other,388.0
40.02181102999674,-82.95603859563683,20429239,2048 DENUNE AVE,Centenary United Methodist Church,House of Worship,375.0
39.90929920926538,-82.95569386957662,20429240,2758 BULEN AVE,M W Benevlent Grand Lodge,Other,359.0
40.056132000000005,-82.8593347254991,20429241,4950 MORSE RD,Beth Messiah Congregation,House of Worship,392.0
40.022985,-83.003908,20429264,350 E TULANE RD,Crestview Presbyterian Church,House of Worship,376.0
39.9211720358366,-82.93522915102058,20429267,6767 REFUGEE RD,Jerry L. Garver YMCA,Community/Recreation Center,365.0
39.90794414532339,-82.81804575698425,20429270,6930 LONG RD,Zion Christian Assembly,House of Worship,377.0
39.9932115,-83.00332869844854,20429326,1493 INDIANOLA AVE,St. Sophia Orthodox Cathedral,House of Worship,362.0
40.033794,-82.919856,20429329,2500 MCCUTCHEON RD,Jehovah's Witnesses,House of Worship,375.0
39.998852,-82.949443,20429340,1441 BRENTNELL AVE,Temple of Faith,House of Worship,372.0
39.9749274,-82.83771646851099,20429358,235 MCNAUGHTEN RD,Church Of The Redeemer,House of Worship,367.0
39.9688328,-83.0070629,20429386,200 W NATIONWIDE BLVD,Nationwide Arena,Arena/Stadium,379.0
39.9444466779661,-83.07661715254237,20429395,2909 PARKSIDE RD,St Mary Magdalene,House of Worship,370.0
39.97355973469388,-82.96980497959183,20429400,1205 HILDRETH AVE,Gospel Tabernacle Church,House of Worship,371.0
39.9778074,-83.01404971968503,20429427,386 BUTTLES AVE,Saint Francis of Assisi Catholic Church,House of Worship,383.0
39.93830489275977,-83.05387942068987,20429472,868 WHITETHORNE AVE,Whitethorne Church of Christ,House of Worship,370.0
40.031563,-83.007892,20429482,3400 CALUMET ST,St. James' Episcopal Church,House of Worship,376.0
40.05355864788658,-83.01824510321731,20429555,60 E DOMINION BLVD,Our Lady of Peace Convent,House of Worship,376.0
39.978948476190475,-82.84679648484848,20429567,5600 E BROAD ST,Forest Lawn Memorial Gardens,Cemetery,367.0
40.011535873748976,-82.95171231216156,20429577,2135 MOCK RD,Living Faith Apostolic Church,House of Worship,372.0
39.92589483658795,-82.88202296830637,20429582,4283 KIMBERLY PKWY,Church Of Pentecost,House of Worship,388.0
40.0645344,-83.0841152,20429583,2425 BETHEL RD,Meadow Park Church of God,House of Worship,385.0
40.01831404761905,-82.96518952380951,20429603,2507 CLEVELAND AVE,Old Tabernacle Ministry Church,House of Worship,373.0
40.0049638,-82.9878158997931,20429611,800 E 17TH AVE,Ohio Historical Society,Museum,399.0
40.003530395258224,-82.97375592378503,20429637,1824 CLEVELAND AVE,Living Waters Christian Fellowship,House of Worship,364.0
39.94912455,-83.1080802022741,20429640,200 GEORGESVILLE RD,Hollywood Casino,Other,370.0
39.957853,-82.95882025,20429643,478 KELTON AVE,Upper Room Church of God,House of Worship,371.0
39.96426645,-82.97940632026555,20429663,787 E BROAD ST,Shiloh Christian Center,House of Worship,371.0
40.11417660089736,-83.08842746022881,20429683,2764 SAWBURY BLVD,Sri Lakshmi Ganapathi Temple,House of Worship,384.0
39.964709472222225,-82.96164977777778,20429721,1459 MADISON AVE,Love Zion Baptist Church,House of Worship,371.0
39.998148,-82.962113,20429728,1548 WENTWORTH RD,New Tabernacle Church of Christ,House of Worship,372.0
39.9816125,-82.99475165329187,20429747,345 E 2ND AVE,Veritas Community Church,House of Worship,380.0
40.09178608692206,-82.9708187730799,20429748,6077 SHARON WOODS BLVD,St. Elizabeth Catholic Church,House of Worship,378.0
40.1257122,-82.98001346666666,20429763,7959 WORTHINGTON-GALENA RD,Korean Seventh Day Adventist Church,House of Worship,386.0
40.0475451,-82.97000704536106,20429764,3911 DRESDEN ST,Feddersen Community Center,Community/Recreation Center,373.0
39.942043,-82.856715,20429767,5164 IVYHURST DR,Pine Hills Baptist Church,House of Worship,367.0
40.04199725,-83.01941014234443,20429776,3923 N HIGH ST,Whetstone Community Center,Community/Recreation Center,376.0
39.959726125,-83.01751685416667,20429777,57 S GRUBB ST,Holy Family Soup Kitchen,House of Worship,374.0
40.0880286122449,-82.92685320408164,20429857,3680 WESTERVILLE RD,Forgiven Fellowship,House of Worship,378.0
40.058807937505506,-83.06426395379226,20429867,1621 FRANCISCO RD,Atonement Lutheran Church ,House of Worship,385.0
40.05785999658537,-82.99630728894142,20429895,4525 GLENMAWR AVE,Eglise Evangelique Des Sanctifies,House of Worship,378.0
40.06224711764706,-83.16088394117646,20429925,5027 AVERY RD,Russian Baptist Church,House of Worship,389.0
39.94591,-83.061151,20429930,2322 SULLIVANT AVE,Hope Christian Assembly,House of Worship,370.0
40.09453413129083,-82.99359818343957,20429934,6178 BUSCH BLVD,Gospel Outlet,House of Worship,378.0
39.99128895,-83.00668280272916,20429948,1423 N HIGH ST,Columbus Metropolitan Library - Northside,Library,362.0
39.9155504938089,-82.87928387726565,20429956,4410 REFUGEE RD,Liberty Hill Baptist Church,House of Worship,377.0
40.10537951278271,-82.98325600680278,20429962,2665 SCHROCK RD,Westerville Bible Church,House of Worship,378.0
40.01628792000402,-83.0201953651766,20429967,316 W DODRIDGE ST,Amarnanth Abbey-Union Cemetery,Cemetery,393.0
40.01416964710626,-83.00534206889442,20429978,235 E TOMPKINS ST,Community of Christ,House of Worship,362.0
39.952646068676984,-83.03095348626607,20429984,283 S YALE AVE,Total Deliverance International Ministries,House of Worship,374.0
40.05360992520618,-83.0193388251364,20430024,20 E DOMINION BLVD,Our Lady of Peace Catholic Church,House of Worship,376.0
39.98374885,-83.01775914679041,20430025,473 W 3RD AVE,First Brethern Church,House of Worship,394.0
40.065656363636364,-83.045813,20430032,4983 POSTLEWAITE RD,Faith Hope Love Ministry,House of Worship,385.0
40.0957722290372,-82.9935070319898,20430035,6360 BUSCH BLVD,Screens at the Continent,Theater/Concert Hall,378.0
40.07674855,-82.96772624814642,20430058,1875 TAMARACK CIR N,Victorious Life Christian Center,House of Worship,378.0
39.95549475,-82.97736925,20430069,830 E FULTON ST,Apostolic Lighthouse Temple,House of Worship,371.0
40.020707875341756,-82.96401100656168,20430083,1751 ABERDEEN AVE,First Spiritualist Church,House of Worship,373.0
39.9864725,-83.00895064431191,20430098,1189 DENNISON AVE,Thompson Community Center,Community/Recreation Center,383.0
40.035329809565106,-82.93226151526929,20430115,3650 SUNBURY RD,Ephesus Seventh-Day Adventist Church,House of Worship,375.0
40.068333729050146,-82.90912787739445,20430119,5441 SUNBURY RD,Northland Church - The Nazarene,House of Worship,378.0
39.847659070765054,-83.00173821460106,20430178,6000 S HIGH ST,Eldorado Scioto Downs,Other,359.0
39.89083372810155,-82.97439356322019,20430183,782 E WILLIAMS RD,Wesleyan Bible Holiness Church,House of Worship,359.0
39.992206956521734,-82.94713856521739,20430184,2188 WOODWARD AVE,Tabernacle Baptist Church,House of Worship,372.0
39.98985719237978,-82.94993763601025,20430198,1084 BRENTNELL AVE,New Season Christian Ministries,House of Worship,372.0
40.056272190280076,-82.8905796326163,20430207,4885 STYGLER RD N,National Church Residences,House of Worship,392.0
39.96329245,-82.99469515708324,20430234,212 E BROAD ST,St. Joseph Cathedral,House of Worship,379.0
39.99712813819706,-82.97448067031188,20430235,1250 WINDSOR AVE,Douglas Community Center,Community/Recreation Center,364.0
39.948869,-82.955065,20430250,1593 E LIVINGSTON AVE,"Elks Lodge, Harvey Alsten",Other,360.0
39.995188702806686,-82.94953844280113,20430272,1280 BRENTNELL AVE,Brentnell Community Center,Community/Recreation Center,372.0
39.971562,-82.918236,20430273,3100 E BROAD ST,Eastminster Prebsbyterian Church,House of Worship,388.0
39.9389535,-82.98469690637938,20430283,415 THURMAN AVE,Thurman Avenue United Methodist,House of Worship,365.0
39.965036749999996,-82.97266485975872,20430302,1049 E BROAD ST,Ethiopian Orthodox Tewanedo Church,House of Worship,371.0
40.06288395,-83.01630454074581,20430386,114 MORSE RD,North Community Lutheran Church,House of Worship,376.0
39.963912,-82.985135,20430410,501 E BROAD ST,Broad Street United Methodist Church,House of Worship,379.0
40.0001822871567,-83.0223291706587,20430437,1849 CANNON DR,Drake Performance and Event Center,Theater/Concert Hall,362.0
40.01421763636364,-82.97827154545455,20430454,1190 E HUDSON ST,Jehovah's Witnesses,House of Worship,373.0
39.95143219185642,-83.06046666488696,20430462,196 S HIGHLAND AVE,Spanish Mission Rock of Salvation,House of Worship,370.0
39.980014099596204,-83.14955237101505,20430486,5660 TRABUE RD,Saint James Lutheran Church,House of Worship,390.0
39.98195058389262,-83.14717391275168,20430493,5275 WESTPOINTE PLAZA DR,Starplex Stadium 10,Theater/Concert Hall,390.0
40.13412921098759,-82.9720315254771,20430510,8225 WORTHINGTON-GALENA RD,Grace Polaris Church,House of Worship,386.0
39.94466285,-83.07356649742349,20430521,511 S HAGUE AVE,Columbus Metropolitan Library - Hilltop,Library,370.0
40.105997,-82.970675,20430529,1688 SCHROCK RD,House of Glory Christian Ministries,House of Worship,378.0
39.88648077057073,-82.93032538663115,20430544,3986 ALUM CREEK DR,Skill Games,Other,359.0
40.0783036,-82.980942,20430553,5469 SANDALWOOD BLVD,Elks Lodge,Other,378.0
40.020295,-83.097496,20430561,3200 INDIAN VILLAGE RD,McKnight Outdoor Education Center,Museum,368.0
40.012659549999995,-82.96833360344694,20430566,2223 CLEVELAND AVE,Columbus Metropolitan Library - Linden,Library,364.0
39.98078071470311,-83.00193813556469,20430569,496 W 1ST AVE,Saint Paul Baptist Church,House of Worship,380.0
39.924404,-82.965363,20430587,1999 LOCKBOURNE RD,Churches Of Christ,House of Worship,365.0
39.996146970118886,-82.96353493529823,20430603,1599 WINDSOR AVE,Columbus Family Worship Center,House of Worship,372.0
40.01363184809416,-83.00982785112777,20430616,42 E TOMPKINS ST,Global Community United Methodist Church,House of Worship,362.0
39.95743979591837,-82.97339851020408,20430619,380 GILBERT ST,New Hope Pentecostal Church,House of Worship,371.0
39.9438499,-82.93476,20430624,1223 COLLEGE AVE,Beth Jacob Synagogue,House of Worship,388.0
40.00184692866879,-82.97483526905584,20430634,1763 CLEVELAND AVE,New Journey Christian Ministries,House of Worship,364.0
39.987717094408325,-82.91546439044505,20430642,588 S 3RD ST,Visitor Center German Village Society,Other,387.0
39.98267946153846,-82.99154107692308,20430658,467 E STARR AVE,New Life Phophetic Deliverance,House of Worship,366.0
39.99039826592458,-83.00500156126013,20430662,28 E 7TH AVE,7th Ave Community Missionary Baptist Church,House of Worship,362.0
40.063502334306335,-83.04835905019061,20430669,1064 BETHEL RD,Northwest Swim Club,Other,385.0
39.92012805,-82.89415666041575,20430690,2600 OLD COURTRIGHT RD,Worship Center of Central Ohio,House of Worship,388.0
40.033628,-82.914866,20430709,2600 MCCUTCHEON RD,Church Of Living God,House of Worship,375.0
40.032965,-82.997182,20430725,600 OAKLAND PARK AVE,Xenos Christian Fellowship,House of Worship,373.0
39.927443,-82.980048,20430807,580 E WOODROW AVE,Barack Community Center,Community/Recreation Center,365.0
39.954925547510705,-83.05124094245271,20430821,1888 FAIRMONT AVE,Glenwood Community Center,Community/Recreation Center,370.0
40.02930447037893,-83.11683697547898,20430899,3706 FISHINGER BLVD,Champions in Christ,House of Worship,368.0
39.9859902,-82.94086510596912,20430957,850 N NELSON RD,Columbus Metropolitan Library - Shepard,Library,372.0
39.93843804081632,-83.06326804081633,20431005,2447 W MOUND ST,Compel Christian Center,House of Worship,370.0
40.11600966565575,-83.01138563553683,20431009,169 HIGH TIDES,Mail Kiosk Building,Other,386.0
40.07988833757243,-82.87587701178975,20431043,4475 DUBLIN RD,St Brendan Church,House of Worship,392.0
40.06566822727273,-83.045807,20431135,4989 POSTLEWAITE RD,Church Storage,House of Worship,385.0
40.08770005452707,-82.92685169507607,20431145,3226 WESTERVILLE RD,Ramseyer Presbytarian Church,House of Worship,378.0
40.013932350000005,-83.02773058613107,20431180,2640 FRED TAYLOR DR,Covelli Center,Arena/Stadium,393.0
39.95548028571429,-83.02648242857144,20431194,1003 W TOWN ST,St John's Episcopal Church,House of Worship,374.0
39.968774731359964,-82.96235062719938,20431201,1467 E LONG ST,Columbus Metropolitan Library - Martin Luther King,Library,371.0
40.135265909876196,-82.98159459932684,20431231,1485 LAZELLE RD,Grace Brethren Christian Church,House of Worship,386.0
40.011492530612244,-82.94719706122449,20431385,2334 MOCK RD,IbnuTaymiyah Masjid and Islamic Center,House of Worship,375.0
40.0619463,-82.98822732568229,20431465,1150 MORSE RD,The Conference Center on Morse Road,Convention Center,378.0
39.987698731697414,-82.91504995011154,20431483,300 2ND ST,Southern Ohio Synod ELCA,House of Worship,387.0
39.97209718868135,-82.97405533731369,20431494,1060 MT VERNON AVE,Ethiopian Orthodox Tewahedo Church,House of Worship,371.0
40.020281,-82.964816,20431499,2596 CLEVELAND AVE,The Church of Columbus,House of Worship,373.0
39.96195863861251,-82.9482657953847,20431521,276 S NELSON RD,Cleo Dumaree Athletic Complex,Community/Recreation Center,371.0
39.97232789143314,-82.97176169587503,20431544,1127 MT VERNON AVE,Mt Vernon Ave AME Church,House of Worship,371.0
39.940893200000005,-82.9834996451286,20431592,1113 PARSONS AVE,Columbus Metropolitan Library - Parsons,Library,365.0
